{
"type": "FeatureCollection",
"name": "kampus_hedefler",
"crs": { "type": "name", "properties": { "name": "urn:ogc:def:crs:OGC:1.3:CRS84" } },
"features": [
{"type":"Feature","properties":{"name":"Mühendislik Fakültesi - Arka Giriş"},"geometry":{"type":"Point","coordinates":[29.896759835689647,39.48084655262781]}},
{"type":"Feature","properties":{"name":"Mühendislik Fakültesi - Ön Giriş"},"geometry":{"type":"Point","coordinates":[29.899211724621708,39.481971641824188]}},
{"type":"Feature","properties":{"name":"Mühendislik Kırtasiye "},"geometry":{"type":"Point","coordinates":[29.8993426335546,39.481021324959109]}},
{"type":"Feature","properties":{"name":"Ekol Kafe"},"geometry":{"type":"Point","coordinates":[29.897704502853955,39.481545639317972]}},
{"type":"Feature","properties":{"name":"Ekol Kafe"},"geometry":{"type":"Point","coordinates":[29.897325928372378,39.481335367888349]}},
{"type":"Feature","properties":{"name":"Rekörlük Binası"},"geometry":{"type":"Point","coordinates":[29.897139589530994,39.478433375180742]}},
{"type":"Feature","properties":{"name":"Fen Edebiyat Fakültesi-Arka"},"geometry":{"type":"Point","coordinates":[29.900021944773894,39.478422451516472]}},
{"type":"Feature","properties":{"name":"Fen Edebiyat Fakültesi-Ön Giriş"},"geometry":{"type":"Point","coordinates":[29.902022138919538,39.479878924951258]}},
{"type":"Feature","properties":{"name":"Fen Edebiyat Fakültesi Kırtasiye"},"geometry":{"type":"Point","coordinates":[29.901007889529648,39.479766049350268]}},
{"type":"Feature","properties":{"name":"Fen Edebiyat Fakültesi-Genç Ofis"},"geometry":{"type":"Point","coordinates":[29.902130640017063,39.479045097641887]}},
{"type":"Feature","properties":{"name":"Fen Edebiyat Fakültesi-Sessiz Salon"},"geometry":{"type":"Point","coordinates":[29.902196684163382,39.479096074270821]}},
{"type":"Feature","properties":{"name":"Mühendsilik Fakültesi Sahalar"},"geometry":{"type":"Point","coordinates":[29.897516984652821,39.480297655419328]}},
{"type":"Feature","properties":{"name":"Fen Edebiyat Fakültesi Sahalar"},"geometry":{"type":"Point","coordinates":[29.89966813684719,39.478710107436683]}},
{"type":"Feature","properties":{"name":"İİBF"},"geometry":{"type":"Point","coordinates":[29.905876286601099,39.477049697386754]}},
{"type":"Feature","properties":{"name":"Bedesten"},"geometry":{"type":"Point","coordinates":[29.900847496602864,39.476973230179802]}},
{"type":"Feature","properties":{"name":"GSF-Yemekhane "},"geometry":{"type":"Point","coordinates":[29.895941360019208,39.484106166370808]}},
{"type":"Feature","properties":{"name":"Güzel Sanatlar Fakültesi"},"geometry":{"type":"Point","coordinates":[29.896068730872823,39.483390721092753]}},
{"type":"Feature","properties":{"name":"Eğitim Fakültesi"},"geometry":{"type":"Point","coordinates":[29.894795022336687,39.482407654507767]}},
{"type":"Feature","properties":{"name":"Kapalı Spor Salonu"},"geometry":{"type":"Point","coordinates":[29.895601704409565,39.48426454639155]}},
{"type":"Feature","properties":{"name":"Olimpik Yüzme Havuzu "},"geometry":{"type":"Point","coordinates":[29.893832664776038,39.48332518375274]}},
{"type":"Feature","properties":{"name":"Kütahya Fizik Tedavi Ve Rehabilitasyon Hastanesi"},"geometry":{"type":"Point","coordinates":[29.892661560538645,39.485130168752583]}},
{"type":"Feature","properties":{"name":"Kütahya Fizik Tedavi Ve Rehabilitasyon Hastanesi"},"geometry":{"type":"Point","coordinates":[29.893510699562739,39.484786105634306]}},
{"type":"Feature","properties":{"name":"Amfi Tiyatro"},"geometry":{"type":"Point","coordinates":[29.890715616941772,39.481514690316267]}},
{"type":"Feature","properties":{"name":"Zafertepe Öğrenci Yurdu"},"geometry":{"type":"Point","coordinates":[29.88957635541778,39.480842911532889]}},
{"type":"Feature","properties":{"name":"Dumlupınar Öğrenci Yurdu"},"geometry":{"type":"Point","coordinates":[29.88878382566196,39.48517385918548]}},
{"type":"Feature","properties":{"name":"Göl-Bedesten"},"geometry":{"type":"Point","coordinates":[29.900855752121178,39.474985053294809]}},
{"type":"Feature","properties":{"name":"Göl-Bedesten"},"geometry":{"type":"Point","coordinates":[29.903608377790949,39.474482538053365]}},
{"type":"Feature","properties":{"name":"Cookberry"},"geometry":{"type":"Point","coordinates":[29.904450440656518,39.474595877405818]}},
{"type":"Feature","properties":{"name":"Cookberry"},"geometry":{"type":"Point","coordinates":[29.904630882699141,39.475325068342144]}},
{"type":"Feature","properties":{"name":"Camii"},"geometry":{"type":"Point","coordinates":[29.892493501773494,39.47897910105786]}},
{"type":"Feature","properties":{"name":"Yabancı Diller Yüksekokulu"},"geometry":{"type":"Point","coordinates":[29.892408587871085,39.47879886179215]}},
{"type":"Feature","properties":{"name":"Göl-Mühendislik"},"geometry":{"type":"Point","coordinates":[29.894786177138549,39.479396926650274]}},
{"type":"Feature","properties":{"name":"İlahiyat Fakültesi"},"geometry":{"type":"Point","coordinates":[29.892137924807162,39.477150060468318]}},
{"type":"Feature","properties":{"name":"Kütüphane"},"geometry":{"type":"Point","coordinates":[29.902677862943737,39.478421996363728]}},
{"type":"Feature","properties":{"name":"SKS"},"geometry":{"type":"Point","coordinates":[29.902295750382891,39.478133201365544]}},
{"type":"Feature","properties":{"name":"Dumlupınar Üniversitesi Müzesi"},"geometry":{"type":"Point","coordinates":[29.902128576137528,39.477985731116782]}},
{"type":"Feature","properties":{"name":"Tas Kapı"},"geometry":{"type":"Point","coordinates":[29.90057624385911,39.481125550958026]}},
{"type":"Feature","properties":{"name":"İİBF Futbol Sahası"},"geometry":{"type":"Point","coordinates":[29.904946656273736,39.475982562605274]}},
{"type":"Feature","properties":{"name":"Otbüs Durakları Kalkış Noktası"},"geometry":{"type":"Point","coordinates":[29.887656062895594,39.48497179070322]}}
]
}
