{
"type": "FeatureCollection",
"name": "kampus_yollar",
"crs": { "type": "name", "properties": { "name": "urn:ogc:def:crs:OGC:1.3:CRS84" } },
"features": [
{"type":"Feature","properties":{"full_id":"w89197651","osm_id":"89197651","osm_type":"way","highway":"tertiary","bridge":null,"service":null,"tunnel":null,"layer":null,"bicycle":null,"access":null,"ref":null,"name":null,"lanes":null,"surface":"asphalt","oneway":"yes"},"geometry":{"type":"MultiLineString","coordinates":[[[29.9046435,39.4788381],[29.9047991,39.4786444],[29.9053301,39.4781807],[29.9053919,39.4781169],[29.9056332,39.4779216],[29.9058874,39.4776759],[29.906284,39.4772966],[29.9064255,39.4771953],[29.9065227,39.4771257]]]}},
{"type":"Feature","properties":{"full_id":"w89197659","osm_id":"89197659","osm_type":"way","highway":"trunk","bridge":null,"service":null,"tunnel":null,"layer":null,"bicycle":null,"access":null,"ref":"D230","name":"Kütahya - Balıkesir Yolu","lanes":"2","surface":"asphalt","oneway":"yes"},"geometry":{"type":"MultiLineString","coordinates":[[[29.896217557692072,39.487429471679846],[29.8965882,39.487004],[29.8973,39.4862128],[29.8985787,39.4847701],[29.8989263,39.4843694],[29.899446,39.4837404],[29.9000516,39.4831156],[29.9013691,39.4819511],[29.9016862,39.481695],[29.902939511911953,39.480701731406128]]]}},
{"type":"Feature","properties":{"full_id":"w89197660","osm_id":"89197660","osm_type":"way","highway":"trunk","bridge":null,"service":null,"tunnel":null,"layer":null,"bicycle":null,"access":null,"ref":"D230","name":"Kütahya - Balıkesir Yolu","lanes":"2","surface":"asphalt","oneway":"yes"},"geometry":{"type":"MultiLineString","coordinates":[[[29.901032655969992,39.482440794975808],[29.9004157,39.4829614],[29.9001411,39.4832294],[29.8994415,39.4839121],[29.8988165,39.4847161],[29.898603192763996,39.484957837370281]]]}},
{"type":"Feature","properties":{"full_id":"w89197664","osm_id":"89197664","osm_type":"way","highway":"tertiary","bridge":null,"service":null,"tunnel":null,"layer":null,"bicycle":null,"access":null,"ref":null,"name":null,"lanes":null,"surface":"asphalt","oneway":"yes"},"geometry":{"type":"MultiLineString","coordinates":[[[29.9065782,39.4775159],[29.9064607,39.4775036],[29.9063062,39.4775386],[29.9061399,39.4776233],[29.9060314,39.4777143],[29.905448,39.4782038],[29.9048292,39.4787026],[29.9046435,39.4788381]]]}},
{"type":"Feature","properties":{"full_id":"w378037907","osm_id":"378037907","osm_type":"way","highway":"tertiary","bridge":null,"service":null,"tunnel":null,"layer":null,"bicycle":null,"access":null,"ref":null,"name":null,"lanes":null,"surface":null,"oneway":null},"geometry":{"type":"MultiLineString","coordinates":[[[29.9046435,39.4788381],[29.901998,39.4809792]]]}},
{"type":"Feature","properties":{"full_id":"w378037908","osm_id":"378037908","osm_type":"way","highway":"service","bridge":null,"service":null,"tunnel":null,"layer":null,"bicycle":null,"access":null,"ref":null,"name":null,"lanes":null,"surface":null,"oneway":"yes"},"geometry":{"type":"MultiLineString","coordinates":[[[29.901998,39.4809792],[29.9018388,39.481154],[29.9015379,39.481408],[29.9013895,39.4815354],[29.9012456,39.481655],[29.9010866,39.4817629],[29.9007169,39.4820063],[29.9004691,39.4821702]]]}},
{"type":"Feature","properties":{"full_id":"w378037909","osm_id":"378037909","osm_type":"way","highway":"service","bridge":null,"service":null,"tunnel":null,"layer":null,"bicycle":null,"access":null,"ref":null,"name":null,"lanes":null,"surface":null,"oneway":"yes"},"geometry":{"type":"MultiLineString","coordinates":[[[29.9004691,39.4821702],[29.9007133,39.4819025],[29.9009561,39.4816514],[29.9010962,39.4815288],[29.9012573,39.4814302],[29.9017149,39.4811567],[29.901998,39.4809792]]]}},
{"type":"Feature","properties":{"full_id":"w378037910","osm_id":"378037910","osm_type":"way","highway":"service","bridge":null,"service":null,"tunnel":null,"layer":null,"bicycle":null,"access":null,"ref":null,"name":null,"lanes":null,"surface":null,"oneway":"yes"},"geometry":{"type":"MultiLineString","coordinates":[[[29.9003221,39.4811413],[29.9004389,39.4812323],[29.9009561,39.4816514],[29.9010866,39.4817629]]]}},
{"type":"Feature","properties":{"full_id":"w378037911","osm_id":"378037911","osm_type":"way","highway":"service","bridge":null,"service":null,"tunnel":null,"layer":null,"bicycle":null,"access":null,"ref":null,"name":null,"lanes":null,"surface":null,"oneway":"yes"},"geometry":{"type":"MultiLineString","coordinates":[[[29.9006117,39.480921],[29.9007387,39.4810225],[29.9012573,39.4814302],[29.9013895,39.4815354]]]}},
{"type":"Feature","properties":{"full_id":"w378038429","osm_id":"378038429","osm_type":"way","highway":"service","bridge":null,"service":null,"tunnel":null,"layer":null,"bicycle":null,"access":null,"ref":null,"name":null,"lanes":null,"surface":null,"oneway":"no"},"geometry":{"type":"MultiLineString","coordinates":[[[29.9004691,39.4821702],[29.9000032,39.4825698],[29.8994007,39.483251],[29.8986349,39.484098],[29.8983556,39.484408]]]}},
{"type":"Feature","properties":{"full_id":"w378038430","osm_id":"378038430","osm_type":"way","highway":"service","bridge":null,"service":null,"tunnel":null,"layer":null,"bicycle":null,"access":null,"ref":null,"name":null,"lanes":null,"surface":null,"oneway":"yes"},"geometry":{"type":"MultiLineString","coordinates":[[[29.8973118,39.4838681],[29.8983556,39.484408]]]}},
{"type":"Feature","properties":{"full_id":"w378038431","osm_id":"378038431","osm_type":"way","highway":"service","bridge":null,"service":null,"tunnel":null,"layer":null,"bicycle":null,"access":null,"ref":null,"name":null,"lanes":null,"surface":null,"oneway":"yes"},"geometry":{"type":"MultiLineString","coordinates":[[[29.8983556,39.484408],[29.8984597,39.4844691],[29.898602,39.4844848],[29.8987646,39.4844566],[29.8989263,39.4843694]]]}},
{"type":"Feature","properties":{"full_id":"w378038432","osm_id":"378038432","osm_type":"way","highway":"service","bridge":null,"service":null,"tunnel":null,"layer":null,"bicycle":null,"access":null,"ref":null,"name":null,"lanes":null,"surface":null,"oneway":"yes"},"geometry":{"type":"MultiLineString","coordinates":[[[29.8985787,39.4847701],[29.8985329,39.4846238],[29.8984993,39.4845715],[29.8983125,39.4844577],[29.8972619,39.4839398]]]}},
{"type":"Feature","properties":{"full_id":"w572079230","osm_id":"572079230","osm_type":"way","highway":"service","bridge":null,"service":null,"tunnel":null,"layer":null,"bicycle":null,"access":null,"ref":null,"name":null,"lanes":null,"surface":null,"oneway":"yes"},"geometry":{"type":"MultiLineString","coordinates":[[[29.9076931,39.4757017],[29.9077331,39.4757031],[29.9077703,39.4757147],[29.9078003,39.4757352],[29.9078196,39.4757623],[29.9078262,39.4757928],[29.9078191,39.4758233],[29.9077993,39.4758502],[29.9077709,39.4758695],[29.907736,39.4758809],[29.9076983,39.4758832],[29.9076615,39.4758761],[29.9076295,39.4758605],[29.9076056,39.4758378],[29.9075922,39.4758105],[29.9075906,39.4757813],[29.9076011,39.4757532],[29.9076226,39.4757292],[29.9076548,39.4757108],[29.9076931,39.4757017]]]}},
{"type":"Feature","properties":{"full_id":"w572079231","osm_id":"572079231","osm_type":"way","highway":"service","bridge":null,"service":null,"tunnel":null,"layer":null,"bicycle":null,"access":null,"ref":null,"name":null,"lanes":null,"surface":null,"oneway":"yes"},"geometry":{"type":"MultiLineString","coordinates":[[[29.8977858,39.4832308],[29.8976556,39.4833771],[29.8973118,39.4838681],[29.8972619,39.4839398],[29.8968507,39.4845318],[29.8966858,39.484747],[29.8962327,39.4853382],[29.8960454,39.4854732]]]}},
{"type":"Feature","properties":{"full_id":"w572079232","osm_id":"572079232","osm_type":"way","highway":"service","bridge":null,"service":null,"tunnel":null,"layer":null,"bicycle":null,"access":null,"ref":null,"name":null,"lanes":null,"surface":null,"oneway":"yes"},"geometry":{"type":"MultiLineString","coordinates":[[[29.9032656,39.4789344],[29.9033111,39.4789364],[29.903353,39.47895],[29.9033866,39.4789737],[29.903408,39.4790048],[29.9034146,39.4790396],[29.9034057,39.479074],[29.9033824,39.4791042],[29.9033498,39.4791255],[29.9033102,39.4791377],[29.9032676,39.4791397],[29.9032264,39.4791312],[29.9031907,39.4791131],[29.9031642,39.4790873],[29.9031496,39.4790564],[29.9031483,39.4790235],[29.9031606,39.4789919],[29.903185,39.478965],[29.9032219,39.4789443],[29.9032656,39.4789344]]]}},
{"type":"Feature","properties":{"full_id":"w572079233","osm_id":"572079233","osm_type":"way","highway":"service","bridge":null,"service":null,"tunnel":null,"layer":null,"bicycle":null,"access":null,"ref":null,"name":null,"lanes":null,"surface":null,"oneway":"yes"},"geometry":{"type":"MultiLineString","coordinates":[[[29.8976773,39.4830576],[29.8977154,39.4830465],[29.8977561,39.4830455],[29.8977951,39.4830546],[29.8978282,39.4830729],[29.8978519,39.4830985],[29.8978637,39.4831287],[29.8978623,39.4831601],[29.8978479,39.4831895],[29.8978213,39.4832142],[29.8977858,39.4832308],[29.8977451,39.4832374],[29.8977039,39.4832334],[29.8976666,39.4832192],[29.8976375,39.4831964],[29.8976196,39.4831675],[29.8976151,39.4831356],[29.8976243,39.4831043],[29.8976458,39.4830776],[29.8976773,39.4830576]]]}},
{"type":"Feature","properties":{"full_id":"w655096482","osm_id":"655096482","osm_type":"way","highway":"service","bridge":null,"service":null,"tunnel":null,"layer":null,"bicycle":null,"access":null,"ref":null,"name":null,"lanes":null,"surface":null,"oneway":"yes"},"geometry":{"type":"MultiLineString","coordinates":[[[29.899797,39.4764251],[29.8989363,39.4770714],[29.8980557,39.4777327],[29.8977855,39.4779355],[29.8962915,39.4790573],[29.8954391,39.4796974],[29.8952972,39.479804],[29.8945808,39.4803419],[29.8945499,39.4803847],[29.8945561,39.480437],[29.8945962,39.4804965],[29.895306,39.481073],[29.8954408,39.4811829],[29.8958594,39.4815228],[29.8969678,39.4824227],[29.8972581,39.4826585],[29.8976791,39.4830003],[29.897726,39.4830246],[29.8977951,39.4830546]]]}},
{"type":"Feature","properties":{"full_id":"w655096485","osm_id":"655096485","osm_type":"way","highway":"service","bridge":null,"service":null,"tunnel":null,"layer":null,"bicycle":null,"access":null,"ref":null,"name":null,"lanes":null,"surface":null,"oneway":"yes"},"geometry":{"type":"MultiLineString","coordinates":[[[29.8976151,39.4831356],[29.8975542,39.4830769],[29.8970439,39.4826621],[29.896547,39.4822582],[29.8963874,39.4821285],[29.8955187,39.4814223],[29.8953249,39.4812648],[29.8951914,39.4811562],[29.8945992,39.4806748],[29.894476,39.4805559],[29.8944452,39.4804917],[29.894439,39.4803966],[29.8944544,39.4803015],[29.8945006,39.4802301],[29.8951857,39.4797152],[29.8953294,39.4796072],[29.8988175,39.4769853],[29.8988571,39.4769555],[29.8989546,39.4768823],[29.8996799,39.4763371]]]}},
{"type":"Feature","properties":{"full_id":"w655096487","osm_id":"655096487","osm_type":"way","highway":"service","bridge":null,"service":null,"tunnel":null,"layer":null,"bicycle":null,"access":null,"ref":null,"name":null,"lanes":null,"surface":null,"oneway":"yes"},"geometry":{"type":"MultiLineString","coordinates":[[[29.8954408,39.4811829],[29.8953249,39.4812648],[29.8935071,39.4825996],[29.8932384,39.482797],[29.8922164,39.4835474],[29.8895777,39.4854908]]]}},
{"type":"Feature","properties":{"full_id":"w655096488","osm_id":"655096488","osm_type":"way","highway":"service","bridge":null,"service":null,"tunnel":null,"layer":null,"bicycle":null,"access":null,"ref":null,"name":null,"lanes":null,"surface":null,"oneway":"yes"},"geometry":{"type":"MultiLineString","coordinates":[[[29.8894384,39.485428],[29.8921129,39.4834513],[29.8930652,39.4827474],[29.8930774,39.482563],[29.8931365,39.4825115],[29.8932624,39.4824715],[29.8934072,39.4824311],[29.8935458,39.4823907],[29.8951914,39.4811562],[29.895306,39.481073]]]}},
{"type":"Feature","properties":{"full_id":"w655096489","osm_id":"655096489","osm_type":"way","highway":"service","bridge":null,"service":null,"tunnel":null,"layer":null,"bicycle":null,"access":null,"ref":null,"name":null,"lanes":null,"surface":null,"oneway":"yes"},"geometry":{"type":"MultiLineString","coordinates":[[[29.8931795,39.4779608],[29.8930972,39.4780788],[29.8920047,39.4796227],[29.89083,39.4812827],[29.8907039,39.4814918],[29.890671,39.4815588],[29.8906432,39.4817333],[29.8906432,39.4819676],[29.8907133,39.482155],[29.89083,39.482328],[29.8910635,39.4824902],[29.8912924,39.4825983],[29.8915632,39.4826704],[29.8917967,39.4826704],[29.8924038,39.4825803],[29.8928008,39.4825262],[29.8932624,39.4824715],[29.8933939,39.482501],[29.8935071,39.4825996]]]}},
{"type":"Feature","properties":{"full_id":"w655096490","osm_id":"655096490","osm_type":"way","highway":"service","bridge":null,"service":null,"tunnel":null,"layer":null,"bicycle":null,"access":null,"ref":null,"name":null,"lanes":null,"surface":null,"oneway":"yes"},"geometry":{"type":"MultiLineString","coordinates":[[[29.8966858,39.484747],[29.8965221,39.4846773],[29.8943958,39.4837336],[29.894335,39.4837066],[29.8942401,39.4836388],[29.8941935,39.4836055],[29.8934454,39.4829723],[29.8932384,39.482797],[29.8930652,39.4827474],[29.8929213,39.4826651],[29.8928473,39.4826564],[29.892622,39.4826686],[29.8917231,39.4827724],[29.891447,39.4827505],[29.8911922,39.4826822],[29.8909268,39.482562],[29.8907746,39.4824254],[29.8906259,39.4822615],[29.8905375,39.4820785],[29.8904915,39.4818327],[29.8904083,39.4815554],[29.8902012,39.4813546],[29.8899535,39.4811033],[29.8895925,39.4808575]]]}},
{"type":"Feature","properties":{"full_id":"w655096491","osm_id":"655096491","osm_type":"way","highway":"service","bridge":null,"service":null,"tunnel":null,"layer":null,"bicycle":null,"access":null,"ref":null,"name":null,"lanes":null,"surface":null,"oneway":"yes"},"geometry":{"type":"MultiLineString","coordinates":[[[29.8895925,39.4808575],[29.8899302,39.4809561],[29.8902821,39.4812458],[29.8904162,39.4813328],[29.8905262,39.4813922],[29.8905669,39.4814051],[29.8906165,39.4814302],[29.8906466,39.4814655],[29.8906677,39.481508],[29.890671,39.4815588]]]}},
{"type":"Feature","properties":{"full_id":"w655096492","osm_id":"655096492","osm_type":"way","highway":"service","bridge":null,"service":null,"tunnel":null,"layer":null,"bicycle":null,"access":null,"ref":null,"name":null,"lanes":null,"surface":null,"oneway":"yes"},"geometry":{"type":"MultiLineString","coordinates":[[[29.8904083,39.4815554],[29.8904152,39.4814908],[29.890436,39.4814396],[29.8904811,39.4814077],[29.8905262,39.4813922],[29.890671,39.4813121],[29.8908212,39.481132],[29.8918974,39.479554],[29.89297,39.477981],[29.8930462,39.4778588]]]}},
{"type":"Feature","properties":{"full_id":"w655096493","osm_id":"655096493","osm_type":"way","highway":"service","bridge":null,"service":null,"tunnel":null,"layer":null,"bicycle":null,"access":null,"ref":null,"name":null,"lanes":null,"surface":null,"oneway":"yes"},"geometry":{"type":"MultiLineString","coordinates":[[[29.890671,39.4815588],[29.8905973,39.4816019],[29.8905229,39.481606],[29.8904699,39.4815991],[29.8904083,39.4815554]]]}},
{"type":"Feature","properties":{"full_id":"w655096494","osm_id":"655096494","osm_type":"way","highway":"service","bridge":null,"service":null,"tunnel":null,"layer":null,"bicycle":null,"access":null,"ref":null,"name":null,"lanes":null,"surface":null,"oneway":null},"geometry":{"type":"MultiLineString","coordinates":[[[29.8895925,39.4808575],[29.8895686,39.4808482],[29.8893875,39.4807782],[29.8891751,39.4807317],[29.8888814,39.4807044],[29.8885593,39.4807126],[29.8882762,39.4807454],[29.887947,39.4808137],[29.8877984,39.4808902],[29.8862447,39.482215],[29.8861208,39.4823461],[29.8860571,39.4824554],[29.8860146,39.4825647],[29.8859969,39.482734],[29.8860536,39.4835781],[29.886096,39.4837228],[29.8861739,39.4838567],[29.8863049,39.4840015],[29.8864464,39.4840971],[29.887586,39.4847035],[29.8878232,39.4848319]]]}},
{"type":"Feature","properties":{"full_id":"w655096495","osm_id":"655096495","osm_type":"way","highway":"service","bridge":null,"service":null,"tunnel":null,"layer":null,"bicycle":null,"access":null,"ref":null,"name":null,"lanes":null,"surface":null,"oneway":"yes"},"geometry":{"type":"MultiLineString","coordinates":[[[29.8895777,39.4854908],[29.8894351,39.4856108],[29.8887237,39.4864767],[29.88803,39.4874436],[29.8878637,39.4877304],[29.8877117,39.4883765],[29.8873752,39.4898063],[29.8873257,39.490063],[29.887262,39.4912976],[29.8872443,39.4914806],[29.8871912,39.4915625],[29.8871098,39.4916171],[29.8869718,39.4916308],[29.8861011,39.491639],[29.885818,39.4916199],[29.8856517,39.4915871],[29.8855278,39.4915325],[29.8853579,39.4914451],[29.885234,39.4913276],[29.8851279,39.4911856],[29.8850818,39.4909999],[29.8850465,39.4900275],[29.8850358,39.4886154],[29.8849084,39.4859331],[29.8849438,39.4857911],[29.8850146,39.4856272],[29.8850925,39.4855043],[29.885227,39.4853732],[29.8853756,39.4852858],[29.8855632,39.4852038],[29.885818,39.4851492],[29.8874248,39.4848733],[29.8876548,39.4848378],[29.8878232,39.4848319],[29.8879451,39.4848597],[29.8880689,39.4849006],[29.8894384,39.485428],[29.8895777,39.4854908]]]}},
{"type":"Feature","properties":{"full_id":"w655096496","osm_id":"655096496","osm_type":"way","highway":"service","bridge":null,"service":null,"tunnel":null,"layer":null,"bicycle":null,"access":null,"ref":null,"name":null,"lanes":null,"surface":null,"oneway":null},"geometry":{"type":"MultiLineString","coordinates":[[[29.8895777,39.4854908],[29.8898952,39.4856381],[29.8908147,39.4860425],[29.891417,39.4863074],[29.8916223,39.4863674],[29.8924929,39.4865641],[29.893898,39.4868974],[29.8944005,39.487023],[29.8946483,39.4871186],[29.8955933,39.4875939]]]}},
{"type":"Feature","properties":{"full_id":"w655096497","osm_id":"655096497","osm_type":"way","highway":"service","bridge":null,"service":null,"tunnel":null,"layer":null,"bicycle":null,"access":null,"ref":null,"name":null,"lanes":null,"surface":null,"oneway":"yes"},"geometry":{"type":"MultiLineString","coordinates":[[[29.8878645,39.4849343],[29.8876734,39.4849343],[29.8857139,39.4852763],[29.8854903,39.4853453],[29.8853276,39.4854551],[29.8851935,39.4855743],[29.885104,39.4857218],[29.8850512,39.4858787],[29.8850349,39.4860293],[29.8851528,39.4883668],[29.8851935,39.4909301],[29.8852219,39.4910776],[29.8853114,39.4912407],[29.8854171,39.4913568],[29.885596,39.4914666],[29.885783,39.4915106],[29.8867384,39.4915419],[29.8869294,39.4915419],[29.8870311,39.4915262],[29.887092,39.4914949],[29.8871205,39.4914415],[29.8871246,39.491269],[29.8871449,39.4907262],[29.8871856,39.4901489],[29.8872343,39.4898038],[29.8877303,39.4878428],[29.8878116,39.4875699],[29.8884215,39.4867102],[29.8893791,39.4855027],[29.8894384,39.485428]]]}},
{"type":"Feature","properties":{"full_id":"w655096498","osm_id":"655096498","osm_type":"way","highway":"service","bridge":null,"service":null,"tunnel":null,"layer":null,"bicycle":null,"access":null,"ref":null,"name":null,"lanes":null,"surface":null,"oneway":null},"geometry":{"type":"MultiLineString","coordinates":[[[29.8908147,39.4860425],[29.8920662,39.4851249],[29.8927282,39.4846649],[29.8930686,39.4844091],[29.8931465,39.4843505],[29.8922164,39.4835474],[29.8921129,39.4834513]]]}},
{"type":"Feature","properties":{"full_id":"w655096499","osm_id":"655096499","osm_type":"way","highway":"service","bridge":null,"service":null,"tunnel":null,"layer":null,"bicycle":null,"access":null,"ref":null,"name":null,"lanes":null,"surface":null,"oneway":"yes"},"geometry":{"type":"MultiLineString","coordinates":[[[29.8897581,39.4779541],[29.8895898,39.4778395],[29.8894752,39.4777249],[29.889507,39.4776156],[29.8910006,39.4765666],[29.8911138,39.4765256],[29.89122,39.476512],[29.8913262,39.4765584],[29.892588,39.4775124],[29.8930462,39.4778588],[29.8931795,39.4779608],[29.8953294,39.4796072],[29.8954391,39.4796974]]]}},
{"type":"Feature","properties":{"full_id":"w655096500","osm_id":"655096500","osm_type":"way","highway":"service","bridge":null,"service":null,"tunnel":null,"layer":null,"bicycle":null,"access":null,"ref":null,"name":null,"lanes":null,"surface":null,"oneway":"yes"},"geometry":{"type":"MultiLineString","coordinates":[[[29.8952972,39.479804],[29.8951857,39.4797152],[29.8934497,39.478315],[29.8930972,39.4780788],[29.89297,39.477981],[29.891305,39.4767169],[29.8912094,39.4766486],[29.8910926,39.4766404],[29.8896982,39.4776047],[29.8896097,39.477673],[29.8895778,39.4777276],[29.8897581,39.4779541]]]}},
{"type":"Feature","properties":{"full_id":"w655096501","osm_id":"655096501","osm_type":"way","highway":"service","bridge":null,"service":null,"tunnel":null,"layer":null,"bicycle":null,"access":null,"ref":null,"name":null,"lanes":null,"surface":null,"oneway":null},"geometry":{"type":"MultiLineString","coordinates":[[[29.8897581,39.4779541],[29.8918974,39.479554],[29.8920047,39.4796227]]]}},
{"type":"Feature","properties":{"full_id":"w655096502","osm_id":"655096502","osm_type":"way","highway":"service","bridge":null,"service":null,"tunnel":null,"layer":null,"bicycle":null,"access":null,"ref":null,"name":null,"lanes":null,"surface":null,"oneway":"yes"},"geometry":{"type":"MultiLineString","coordinates":[[[29.8996799,39.4763371],[29.8997462,39.4762736],[29.8998163,39.4762375],[29.899891,39.4762285],[29.8999774,39.4762682],[29.9019926,39.4779022],[29.9021676,39.4780441],[29.9032656,39.4789344]]]}},
{"type":"Feature","properties":{"full_id":"w655096503","osm_id":"655096503","osm_type":"way","highway":"service","bridge":null,"service":null,"tunnel":null,"layer":null,"bicycle":null,"access":null,"ref":null,"name":null,"lanes":null,"surface":null,"oneway":"yes"},"geometry":{"type":"MultiLineString","coordinates":[[[29.9031483,39.4790235],[29.9027583,39.4787105],[29.9023766,39.4784043],[29.9020004,39.4781024],[29.9018645,39.4779933],[29.9016008,39.4777817],[29.9008908,39.477212],[29.899919,39.4764322],[29.899856,39.4764124],[29.899797,39.4764251]]]}},
{"type":"Feature","properties":{"full_id":"w655096504","osm_id":"655096504","osm_type":"way","highway":"service","bridge":null,"service":null,"tunnel":null,"layer":null,"bicycle":null,"access":null,"ref":null,"name":null,"lanes":null,"surface":null,"oneway":"yes"},"geometry":{"type":"MultiLineString","coordinates":[[[29.9049637,39.4777144],[29.9050835,39.4778193],[29.9053919,39.4781169],[29.905448,39.4782038]]]}},
{"type":"Feature","properties":{"full_id":"w655096505","osm_id":"655096505","osm_type":"way","highway":"service","bridge":null,"service":null,"tunnel":null,"layer":null,"bicycle":null,"access":null,"ref":null,"name":null,"lanes":null,"surface":null,"oneway":"yes"},"geometry":{"type":"MultiLineString","coordinates":[[[29.905448,39.4782038],[29.9053301,39.4781807],[29.9049636,39.4779072],[29.9048395,39.477805]]]}},
{"type":"Feature","properties":{"full_id":"w655096507","osm_id":"655096507","osm_type":"way","highway":"service","bridge":null,"service":null,"tunnel":null,"layer":null,"bicycle":null,"access":null,"ref":null,"name":null,"lanes":null,"surface":null,"oneway":"yes"},"geometry":{"type":"MultiLineString","coordinates":[[[29.8951392,39.4850714],[29.8948496,39.4850426],[29.8943245,39.4850993],[29.8941574,39.4851333],[29.8939712,39.4851868],[29.8935561,39.485367],[29.8935188,39.4853622],[29.8935037,39.4853431],[29.8935145,39.4853208],[29.8937516,39.4852206],[29.8939398,39.4851494],[29.8941035,39.4850964],[29.8943084,39.4850517],[29.8945241,39.4850243],[29.8947912,39.484992],[29.8949178,39.4849838],[29.8951392,39.4850714]]]}},
{"type":"Feature","properties":{"full_id":"w655096508","osm_id":"655096508","osm_type":"way","highway":"service","bridge":null,"service":null,"tunnel":null,"layer":null,"bicycle":null,"access":null,"ref":null,"name":null,"lanes":null,"surface":null,"oneway":null},"geometry":{"type":"MultiLineString","coordinates":[[[29.9076548,39.4757108],[29.9068477,39.4750545],[29.9065341,39.4747995],[29.9057076,39.4741275],[29.9053496,39.4743774],[29.9049919,39.474627],[29.9049682,39.4746436]]]}},
{"type":"Feature","properties":{"full_id":"w655096509","osm_id":"655096509","osm_type":"way","highway":"service","bridge":null,"service":null,"tunnel":null,"layer":null,"bicycle":null,"access":null,"ref":null,"name":null,"lanes":null,"surface":null,"oneway":null},"geometry":{"type":"MultiLineString","coordinates":[[[29.9077703,39.4757147],[29.9084568,39.475264],[29.9085427,39.4751708],[29.9085909,39.4750735],[29.9086151,39.4749803],[29.9086687,39.4743944],[29.9086674,39.4743322],[29.9086634,39.4741315],[29.9086365,39.4739306],[29.9085593,39.4737878],[29.9084783,39.4737194],[29.9083978,39.4736842],[29.9082235,39.4736263],[29.9080089,39.4735704],[29.9077675,39.4734668],[29.9075797,39.4733737],[29.9074188,39.4733323],[29.9072632,39.4733323],[29.9071774,39.4733219],[29.9070379,39.4732453],[29.9069575,39.473177],[29.906877,39.4731418],[29.9067751,39.4731418],[29.9065471,39.4731832],[29.9063727,39.4732246],[29.906134,39.4733219],[29.9059731,39.4733364],[29.905611,39.473353],[29.9054447,39.4733737],[29.905324,39.4734275],[29.9052167,39.4735083],[29.9051362,39.4735393],[29.9050477,39.4735352],[29.9049163,39.4735455],[29.9048144,39.4736076],[29.9046347,39.4736697]]]}},
{"type":"Feature","properties":{"full_id":"w655099592","osm_id":"655099592","osm_type":"way","highway":"service","bridge":null,"service":null,"tunnel":null,"layer":null,"bicycle":null,"access":null,"ref":null,"name":null,"lanes":null,"surface":null,"oneway":null},"geometry":{"type":"MultiLineString","coordinates":[[[29.9018645,39.4779933],[29.9019926,39.4779022],[29.9026436,39.477426],[29.9047513,39.4758842]]]}},
{"type":"Feature","properties":{"full_id":"w655099593","osm_id":"655099593","osm_type":"way","highway":"service","bridge":null,"service":null,"tunnel":null,"layer":null,"bicycle":null,"access":null,"ref":null,"name":null,"lanes":null,"surface":null,"oneway":null},"geometry":{"type":"MultiLineString","coordinates":[[[29.9026436,39.477426],[29.9020241,39.4768789],[29.9014388,39.4763619],[29.901408,39.4762763],[29.9014203,39.4761717],[29.9013957,39.4760195],[29.9013509,39.4759397],[29.9013156,39.4758768],[29.9012108,39.4757578],[29.9010578,39.4757008],[29.9007487,39.475677],[29.9006069,39.475677],[29.9004221,39.4757198],[29.8997658,39.476213],[29.8997462,39.4762736],[29.899797,39.4764251]]]}},
{"type":"Feature","properties":{"full_id":"w655099594","osm_id":"655099594","osm_type":"way","highway":"service","bridge":null,"service":null,"tunnel":null,"layer":null,"bicycle":null,"access":null,"ref":null,"name":null,"lanes":null,"surface":null,"oneway":null},"geometry":{"type":"MultiLineString","coordinates":[[[29.8999774,39.4762682],[29.899919,39.4764322]]]}},
{"type":"Feature","properties":{"full_id":"w660173386","osm_id":"660173386","osm_type":"way","highway":"service","bridge":null,"service":null,"tunnel":null,"layer":null,"bicycle":null,"access":null,"ref":null,"name":null,"lanes":null,"surface":null,"oneway":"yes"},"geometry":{"type":"MultiLineString","coordinates":[[[29.9032656,39.4789344],[29.9035572,39.4787406],[29.9048395,39.477805],[29.9049637,39.4777144],[29.906155,39.4768452],[29.9068953,39.4763157],[29.9075413,39.4758536],[29.9075906,39.4757813]]]}},
{"type":"Feature","properties":{"full_id":"w660173387","osm_id":"660173387","osm_type":"way","highway":"service","bridge":null,"service":null,"tunnel":null,"layer":null,"bicycle":null,"access":null,"ref":null,"name":null,"lanes":null,"surface":null,"oneway":"yes"},"geometry":{"type":"MultiLineString","coordinates":[[[29.9033102,39.4791377],[29.9030139,39.4793293],[29.9007387,39.4810225],[29.9004389,39.4812323],[29.897989,39.4830006],[29.8978623,39.4831601]]]}},
{"type":"Feature","properties":{"full_id":"w660173388","osm_id":"660173388","osm_type":"way","highway":"service","bridge":null,"service":null,"tunnel":null,"layer":null,"bicycle":null,"access":null,"ref":null,"name":null,"lanes":null,"surface":null,"oneway":"yes"},"geometry":{"type":"MultiLineString","coordinates":[[[29.907736,39.4758809],[29.9075307,39.4760249],[29.9050835,39.4778193],[29.9049636,39.4779072],[29.9047702,39.478049],[29.903579,39.4789339],[29.9034057,39.479074]]]}},
{"type":"Feature","properties":{"full_id":"w660173389","osm_id":"660173389","osm_type":"way","highway":"service","bridge":null,"service":null,"tunnel":null,"layer":null,"bicycle":"designated","access":"customers","ref":null,"name":null,"lanes":null,"surface":"paved","oneway":"yes"},"geometry":{"type":"MultiLineString","coordinates":[[[29.8976773,39.4830576],[29.897726,39.4830246],[29.8978614,39.4829328],[29.8986419,39.4823904],[29.8987314,39.4823272],[29.8998852,39.481467],[29.9003221,39.4811413],[29.9003611,39.4811116],[29.9006117,39.480921],[29.9007967,39.4807834],[29.9010135,39.480624],[29.9015481,39.4802311],[29.902322,39.4796495],[29.9026109,39.4794419],[29.9030978,39.479092],[29.9031483,39.4790235]]]}},
{"type":"Feature","properties":{"full_id":"w660173392","osm_id":"660173392","osm_type":"way","highway":"service","bridge":null,"service":null,"tunnel":null,"layer":null,"bicycle":null,"access":null,"ref":null,"name":null,"lanes":null,"surface":null,"oneway":null},"geometry":{"type":"MultiLineString","coordinates":[[[29.8983556,39.484408],[29.8983125,39.4844577],[29.8982585,39.4845995],[29.8970866,39.4859617],[29.8955933,39.4875939],[29.8946249,39.4887286],[29.8923451,39.491345],[29.8916584,39.4921109],[29.891285573087654,39.492492309144623]]]}},
{"type":"Feature","properties":{"full_id":"w660173394","osm_id":"660173394","osm_type":"way","highway":"service","bridge":null,"service":null,"tunnel":null,"layer":null,"bicycle":null,"access":null,"ref":null,"name":null,"lanes":null,"surface":null,"oneway":"yes"},"geometry":{"type":"MultiLineString","coordinates":[[[29.8895777,39.4854908],[29.8893791,39.4855027],[29.8880068,39.4849813],[29.8878645,39.4849343]]]}},
{"type":"Feature","properties":{"full_id":"w1062957873","osm_id":"1062957873","osm_type":"way","highway":"footway","bridge":null,"service":null,"tunnel":null,"layer":null,"bicycle":null,"access":null,"ref":null,"name":null,"lanes":null,"surface":null,"oneway":null},"geometry":{"type":"MultiLineString","coordinates":[[[29.9003611,39.4811116],[29.8999444,39.4807735],[29.8995958,39.4804906],[29.8993944,39.4803302],[29.8992366,39.4803327],[29.8990874,39.4802633],[29.8990408,39.4802105],[29.8990003,39.4801312],[29.898998,39.4800946],[29.8989817,39.4800179],[29.8984966,39.4796115],[29.8984763,39.4795946],[29.8981235,39.4793017]]]}},
{"type":"Feature","properties":{"full_id":"w1062957874","osm_id":"1062957874","osm_type":"way","highway":"footway","bridge":null,"service":null,"tunnel":null,"layer":null,"bicycle":null,"access":null,"ref":null,"name":null,"lanes":null,"surface":null,"oneway":null},"geometry":{"type":"MultiLineString","coordinates":[[[29.9006117,39.480921],[29.900559,39.4808668],[29.9002021,39.4805848],[29.8998511,39.4803074],[29.8996631,39.4801588],[29.8996323,39.4801329],[29.8996122,39.4800449],[29.8995399,39.4799246],[29.8993922,39.4798625],[29.8992492,39.4798374],[29.8992125,39.4797985],[29.8990964,39.4796897],[29.898734,39.4793957],[29.8983917,39.4791174]]]}},
{"type":"Feature","properties":{"full_id":"w1063198363","osm_id":"1063198363","osm_type":"way","highway":"footway","bridge":null,"service":null,"tunnel":null,"layer":null,"bicycle":null,"access":null,"ref":null,"name":null,"lanes":null,"surface":null,"oneway":null},"geometry":{"type":"MultiLineString","coordinates":[[[29.8970439,39.4826621],[29.8969279,39.4827556],[29.8966808,39.4829339],[29.8962591,39.4832634],[29.8959986,39.4834355],[29.8955205,39.4838004],[29.8952788,39.4838045],[29.8947953,39.4834397],[29.8941668,39.4829048],[29.8947953,39.4824032],[29.8951069,39.4821751],[29.8954829,39.4818891],[29.8960416,39.4823907],[29.896192,39.482511],[29.8966808,39.4829339]]]}},
{"type":"Feature","properties":{"full_id":"w1063198364","osm_id":"1063198364","osm_type":"way","highway":"footway","bridge":null,"service":null,"tunnel":null,"layer":null,"bicycle":null,"access":null,"ref":null,"name":null,"lanes":null,"surface":null,"oneway":null},"geometry":{"type":"MultiLineString","coordinates":[[[29.8963874,39.4821285],[29.8960416,39.4823907],[29.8958907,39.4824856]]]}},
{"type":"Feature","properties":{"full_id":"w1063198365","osm_id":"1063198365","osm_type":"way","highway":"footway","bridge":null,"service":null,"tunnel":null,"layer":null,"bicycle":null,"access":null,"ref":null,"name":null,"lanes":null,"surface":null,"oneway":null},"geometry":{"type":"MultiLineString","coordinates":[[[29.896547,39.4822582],[29.896192,39.482511],[29.8960471,39.4826148]]]}},
{"type":"Feature","properties":{"full_id":"w1063198366","osm_id":"1063198366","osm_type":"way","highway":"footway","bridge":null,"service":null,"tunnel":null,"layer":null,"bicycle":null,"access":null,"ref":null,"name":null,"lanes":null,"surface":null,"oneway":null},"geometry":{"type":"MultiLineString","coordinates":[[[29.8966808,39.4829339],[29.896756,39.4829836],[29.8970139,39.4831287]]]}},
{"type":"Feature","properties":{"full_id":"w1063198367","osm_id":"1063198367","osm_type":"way","highway":"footway","bridge":null,"service":null,"tunnel":null,"layer":null,"bicycle":null,"access":null,"ref":null,"name":null,"lanes":null,"surface":null,"oneway":null},"geometry":{"type":"MultiLineString","coordinates":[[[29.8962591,39.4832634],[29.8964391,39.4834107],[29.8966738,39.4835284],[29.8972057,39.4837667]]]}},
{"type":"Feature","properties":{"full_id":"w1063198368","osm_id":"1063198368","osm_type":"way","highway":"footway","bridge":null,"service":null,"tunnel":null,"layer":null,"bicycle":null,"access":null,"ref":null,"name":null,"lanes":null,"surface":null,"oneway":null},"geometry":{"type":"MultiLineString","coordinates":[[[29.8959986,39.4834355],[29.8959878,39.4836594],[29.8957569,39.4840409]]]}},
{"type":"Feature","properties":{"full_id":"w1063198369","osm_id":"1063198369","osm_type":"way","highway":"footway","bridge":null,"service":null,"tunnel":null,"layer":null,"bicycle":null,"access":null,"ref":null,"name":null,"lanes":null,"surface":null,"oneway":null},"geometry":{"type":"MultiLineString","coordinates":[[[29.8952788,39.4838045],[29.8953593,39.4838667],[29.8957569,39.4840409],[29.8960147,39.484157]]]}},
{"type":"Feature","properties":{"full_id":"w1063198370","osm_id":"1063198370","osm_type":"way","highway":"footway","bridge":null,"service":null,"tunnel":null,"layer":null,"bicycle":null,"access":null,"ref":null,"name":null,"lanes":null,"surface":null,"oneway":null},"geometry":{"type":"MultiLineString","coordinates":[[[29.8947953,39.4834397],[29.8943958,39.4837336]]]}},
{"type":"Feature","properties":{"full_id":"w1063198371","osm_id":"1063198371","osm_type":"way","highway":"footway","bridge":null,"service":null,"tunnel":null,"layer":null,"bicycle":null,"access":null,"ref":null,"name":null,"lanes":null,"surface":null,"oneway":null},"geometry":{"type":"MultiLineString","coordinates":[[[29.8941668,39.4829048],[29.8940593,39.482909],[29.8940217,39.4829401],[29.8939841,39.4829712],[29.8936403,39.4828468],[29.8934454,39.4829723]]]}},
{"type":"Feature","properties":{"full_id":"w1063198372","osm_id":"1063198372","osm_type":"way","highway":"service","bridge":null,"service":null,"tunnel":null,"layer":null,"bicycle":null,"access":null,"ref":null,"name":null,"lanes":null,"surface":null,"oneway":null},"geometry":{"type":"MultiLineString","coordinates":[[[29.8955187,39.4814223],[29.8946633,39.4820692],[29.8945197,39.4821778],[29.8938982,39.4826478],[29.8939411,39.4826809]]]}},
{"type":"Feature","properties":{"full_id":"w1063198373","osm_id":"1063198373","osm_type":"way","highway":"service","bridge":null,"service":null,"tunnel":null,"layer":null,"bicycle":null,"access":null,"ref":null,"name":null,"lanes":null,"surface":null,"oneway":null},"geometry":{"type":"MultiLineString","coordinates":[[[29.8946633,39.4820692],[29.8946873,39.4821043]]]}},
{"type":"Feature","properties":{"full_id":"w1063198383","osm_id":"1063198383","osm_type":"way","highway":"service","bridge":null,"service":null,"tunnel":null,"layer":null,"bicycle":null,"access":null,"ref":null,"name":null,"lanes":null,"surface":null,"oneway":null},"geometry":{"type":"MultiLineString","coordinates":[[[29.8972539,39.4836973],[29.897061,39.4836135],[29.8967284,39.4834831],[29.8967542,39.4834528]]]}},
{"type":"Feature","properties":{"full_id":"w1063198385","osm_id":"1063198385","osm_type":"way","highway":"service","bridge":null,"service":null,"tunnel":null,"layer":null,"bicycle":null,"access":null,"ref":null,"name":null,"lanes":null,"surface":null,"oneway":null},"geometry":{"type":"MultiLineString","coordinates":[[[29.897061,39.4836135],[29.897086,39.4835582],[29.8973364,39.4832621],[29.897348,39.4831581],[29.8972997,39.4830897],[29.8972192,39.4830835],[29.8971605,39.4831038]]]}},
{"type":"Feature","properties":{"full_id":"w1063198391","osm_id":"1063198391","osm_type":"way","highway":"service","bridge":null,"service":null,"tunnel":null,"layer":null,"bicycle":null,"access":null,"ref":null,"name":null,"lanes":null,"surface":null,"oneway":null},"geometry":{"type":"MultiLineString","coordinates":[[[29.8968224,39.4842636],[29.8962441,39.484004]]]}},
{"type":"Feature","properties":{"full_id":"w1063198392","osm_id":"1063198392","osm_type":"way","highway":"footway","bridge":null,"service":null,"tunnel":null,"layer":null,"bicycle":null,"access":null,"ref":null,"name":null,"lanes":null,"surface":null,"oneway":null},"geometry":{"type":"MultiLineString","coordinates":[[[29.8969619,39.4840827],[29.8965834,39.483927]]]}},
{"type":"Feature","properties":{"full_id":"w1063261991","osm_id":"1063261991","osm_type":"way","highway":"footway","bridge":null,"service":null,"tunnel":null,"layer":null,"bicycle":null,"access":null,"ref":null,"name":null,"lanes":null,"surface":null,"oneway":null},"geometry":{"type":"MultiLineString","coordinates":[[[29.8969678,39.4824227],[29.8973637,39.4821295]]]}},
{"type":"Feature","properties":{"full_id":"w1063261992","osm_id":"1063261992","osm_type":"way","highway":"footway","bridge":null,"service":null,"tunnel":null,"layer":null,"bicycle":null,"access":null,"ref":null,"name":null,"lanes":null,"surface":null,"oneway":null},"geometry":{"type":"MultiLineString","coordinates":[[[29.8962492,39.4812113],[29.8973637,39.4821295],[29.8976584,39.4823701],[29.8977261,39.4824254],[29.8982089,39.482059]]]}},
{"type":"Feature","properties":{"full_id":"w1063261993","osm_id":"1063261993","osm_type":"way","highway":"footway","bridge":null,"service":null,"tunnel":null,"layer":null,"bicycle":null,"access":null,"ref":null,"name":null,"lanes":null,"surface":null,"oneway":null},"geometry":{"type":"MultiLineString","coordinates":[[[29.8972581,39.4826585],[29.8976584,39.4823701]]]}},
{"type":"Feature","properties":{"full_id":"w1063261996","osm_id":"1063261996","osm_type":"way","highway":"footway","bridge":null,"service":null,"tunnel":null,"layer":null,"bicycle":null,"access":null,"ref":null,"name":null,"lanes":null,"surface":null,"oneway":null},"geometry":{"type":"MultiLineString","coordinates":[[[29.8998852,39.481467],[29.8994669,39.4811231],[29.8991162,39.4808347],[29.8987476,39.4805317],[29.8983736,39.4802242],[29.8980202,39.4799336],[29.8976461,39.4796261],[29.8974642,39.4794765],[29.897415,39.479436],[29.8973774,39.4793118],[29.8974203,39.4792166],[29.8983054,39.4786079],[29.8984235,39.4785789],[29.8985737,39.4786369],[29.8987984,39.4788154],[29.8989492,39.478935],[29.8991055,39.479063],[29.8991466,39.4790966],[29.8995009,39.4793865],[29.899863,39.4796827],[29.9002643,39.480011],[29.900605,39.4802898],[29.9010135,39.480624]]]}},
{"type":"Feature","properties":{"full_id":"w1063261997","osm_id":"1063261997","osm_type":"way","highway":"footway","bridge":null,"service":null,"tunnel":null,"layer":null,"bicycle":null,"access":null,"ref":null,"name":null,"lanes":null,"surface":null,"oneway":null},"geometry":{"type":"MultiLineString","coordinates":[[[29.8994669,39.4811231],[29.8999444,39.4807735]]]}},
{"type":"Feature","properties":{"full_id":"w1063261998","osm_id":"1063261998","osm_type":"way","highway":"footway","bridge":null,"service":null,"tunnel":null,"layer":null,"bicycle":null,"access":null,"ref":null,"name":null,"lanes":null,"surface":null,"oneway":null},"geometry":{"type":"MultiLineString","coordinates":[[[29.8991162,39.4808347],[29.8995958,39.4804906],[29.8998511,39.4803074],[29.9002643,39.480011]]]}},
{"type":"Feature","properties":{"full_id":"w1063261999","osm_id":"1063261999","osm_type":"way","highway":"footway","bridge":null,"service":null,"tunnel":null,"layer":null,"bicycle":null,"access":null,"ref":null,"name":null,"lanes":null,"surface":null,"oneway":null},"geometry":{"type":"MultiLineString","coordinates":[[[29.8987476,39.4805317],[29.8990874,39.4802633]]]}},
{"type":"Feature","properties":{"full_id":"w1063262000","osm_id":"1063262000","osm_type":"way","highway":"footway","bridge":null,"service":null,"tunnel":null,"layer":null,"bicycle":null,"access":null,"ref":null,"name":null,"lanes":null,"surface":null,"oneway":null},"geometry":{"type":"MultiLineString","coordinates":[[[29.8993944,39.4803302],[29.8995175,39.4802743],[29.8995929,39.4802103],[29.8996323,39.4801329]]]}},
{"type":"Feature","properties":{"full_id":"w1063262001","osm_id":"1063262001","osm_type":"way","highway":"footway","bridge":null,"service":null,"tunnel":null,"layer":null,"bicycle":null,"access":null,"ref":null,"name":null,"lanes":null,"surface":null,"oneway":null},"geometry":{"type":"MultiLineString","coordinates":[[[29.8989817,39.4800179],[29.8990722,39.4799138],[29.8991578,39.4798579],[29.8992492,39.4798374]]]}},
{"type":"Feature","properties":{"full_id":"w1063262002","osm_id":"1063262002","osm_type":"way","highway":"footway","bridge":null,"service":null,"tunnel":null,"layer":null,"bicycle":null,"access":null,"ref":null,"name":null,"lanes":null,"surface":null,"oneway":null},"geometry":{"type":"MultiLineString","coordinates":[[[29.8995399,39.4799246],[29.899863,39.4796827]]]}},
{"type":"Feature","properties":{"full_id":"w1063262003","osm_id":"1063262003","osm_type":"way","highway":"footway","bridge":null,"service":null,"tunnel":null,"layer":null,"bicycle":null,"access":null,"ref":null,"name":null,"lanes":null,"surface":null,"oneway":null},"geometry":{"type":"MultiLineString","coordinates":[[[29.8988743,39.4798521],[29.8990964,39.4796897],[29.8995009,39.4793865]]]}},
{"type":"Feature","properties":{"full_id":"w1063262004","osm_id":"1063262004","osm_type":"way","highway":"footway","bridge":null,"service":null,"tunnel":null,"layer":null,"bicycle":null,"access":null,"ref":null,"name":null,"lanes":null,"surface":null,"oneway":null},"geometry":{"type":"MultiLineString","coordinates":[[[29.8980202,39.4799336],[29.8984763,39.4795946],[29.898734,39.4793957],[29.8991466,39.4790966]]]}},
{"type":"Feature","properties":{"full_id":"w1063262005","osm_id":"1063262005","osm_type":"way","highway":"footway","bridge":null,"service":null,"tunnel":null,"layer":null,"bicycle":null,"access":null,"ref":null,"name":null,"lanes":null,"surface":null,"oneway":null},"geometry":{"type":"MultiLineString","coordinates":[[[29.8958594,39.4815228],[29.8962492,39.4812113],[29.8967564,39.480845],[29.8971211,39.480584],[29.8976612,39.4801976],[29.8980202,39.4799336]]]}},
{"type":"Feature","properties":{"full_id":"w1063262006","osm_id":"1063262006","osm_type":"way","highway":"footway","bridge":null,"service":null,"tunnel":null,"layer":null,"bicycle":null,"access":null,"ref":null,"name":null,"lanes":null,"surface":null,"oneway":null},"geometry":{"type":"MultiLineString","coordinates":[[[29.8976461,39.4796261],[29.8981235,39.4793017],[29.8983917,39.4791174],[29.8987984,39.4788154]]]}},
{"type":"Feature","properties":{"full_id":"w1063262007","osm_id":"1063262007","osm_type":"way","highway":"footway","bridge":null,"service":null,"tunnel":null,"layer":null,"bicycle":null,"access":null,"ref":null,"name":null,"lanes":null,"surface":null,"oneway":null},"geometry":{"type":"MultiLineString","coordinates":[[[29.8974642,39.4794765],[29.8985737,39.4786369]]]}},
{"type":"Feature","properties":{"full_id":"w1063262008","osm_id":"1063262008","osm_type":"way","highway":"footway","bridge":null,"service":null,"tunnel":null,"layer":null,"bicycle":null,"access":null,"ref":null,"name":null,"lanes":null,"surface":null,"oneway":null},"geometry":{"type":"MultiLineString","coordinates":[[[29.8962915,39.4790573],[29.8971038,39.4797336],[29.8972821,39.479882],[29.8976612,39.4801976]]]}},
{"type":"Feature","properties":{"full_id":"w1063262009","osm_id":"1063262009","osm_type":"way","highway":"footway","bridge":null,"service":null,"tunnel":null,"layer":null,"bicycle":null,"access":null,"ref":null,"name":null,"lanes":null,"surface":null,"oneway":null},"geometry":{"type":"MultiLineString","coordinates":[[[29.8976461,39.4796261],[29.8972821,39.479882]]]}},
{"type":"Feature","properties":{"full_id":"w1063262010","osm_id":"1063262010","osm_type":"way","highway":"footway","bridge":null,"service":null,"tunnel":null,"layer":null,"bicycle":null,"access":null,"ref":null,"name":null,"lanes":null,"surface":null,"oneway":null},"geometry":{"type":"MultiLineString","coordinates":[[[29.8974642,39.4794765],[29.8971038,39.4797336]]]}},
{"type":"Feature","properties":{"full_id":"w1063262011","osm_id":"1063262011","osm_type":"way","highway":"footway","bridge":null,"service":null,"tunnel":null,"layer":null,"bicycle":null,"access":null,"ref":null,"name":null,"lanes":null,"surface":null,"oneway":null},"geometry":{"type":"MultiLineString","coordinates":[[[29.8991466,39.4790966],[29.8994462,39.478874],[29.8996523,39.4787208],[29.9004808,39.4781051],[29.9009206,39.4777839],[29.9012411,39.4780429],[29.9016353,39.4783614],[29.9020108,39.4786649],[29.9023904,39.478964],[29.9021952,39.4791055],[29.9019049,39.479316]]]}},
{"type":"Feature","properties":{"full_id":"w1063262012","osm_id":"1063262012","osm_type":"way","highway":"footway","bridge":null,"service":null,"tunnel":null,"layer":null,"bicycle":null,"access":null,"ref":null,"name":null,"lanes":null,"surface":null,"oneway":null},"geometry":{"type":"MultiLineString","coordinates":[[[29.9004808,39.4781051],[29.9002878,39.4779487],[29.9001104,39.4778049],[29.8999416,39.477668]]]}},
{"type":"Feature","properties":{"full_id":"w1063262014","osm_id":"1063262014","osm_type":"way","highway":"footway","bridge":null,"service":null,"tunnel":null,"layer":null,"bicycle":null,"access":null,"ref":null,"name":null,"lanes":null,"surface":null,"oneway":null},"geometry":{"type":"MultiLineString","coordinates":[[[29.8986419,39.4823904],[29.8982089,39.482059]]]}},
{"type":"Feature","properties":{"full_id":"w1063262015","osm_id":"1063262015","osm_type":"way","highway":"footway","bridge":null,"service":null,"tunnel":null,"layer":null,"bicycle":null,"access":null,"ref":null,"name":null,"lanes":null,"surface":null,"oneway":null},"geometry":{"type":"MultiLineString","coordinates":[[[29.8983736,39.4802242],[29.8988155,39.4798958]]]}},
{"type":"Feature","properties":{"full_id":"w1063262016","osm_id":"1063262016","osm_type":"way","highway":"footway","bridge":null,"service":null,"tunnel":"yes","layer":"-1","bicycle":null,"access":null,"ref":null,"name":null,"lanes":null,"surface":null,"oneway":null},"geometry":{"type":"MultiLineString","coordinates":[[[29.8988155,39.4798958],[29.8988743,39.4798521]]]}},
{"type":"Feature","properties":{"full_id":"w1063528991","osm_id":"1063528991","osm_type":"way","highway":"footway","bridge":null,"service":null,"tunnel":null,"layer":null,"bicycle":null,"access":null,"ref":null,"name":null,"lanes":null,"surface":null,"oneway":null},"geometry":{"type":"MultiLineString","coordinates":[[[29.8971211,39.480584],[29.8967641,39.4802941],[29.8972821,39.479882]]]}},
{"type":"Feature","properties":{"full_id":"w1063528992","osm_id":"1063528992","osm_type":"way","highway":"footway","bridge":null,"service":null,"tunnel":null,"layer":null,"bicycle":null,"access":null,"ref":null,"name":null,"lanes":null,"surface":null,"oneway":null},"geometry":{"type":"MultiLineString","coordinates":[[[29.8967564,39.480845],[29.8973157,39.4812789],[29.897327,39.4813541],[29.8973542,39.4813809]]]}},
{"type":"Feature","properties":{"full_id":"w1063528995","osm_id":"1063528995","osm_type":"way","highway":"footway","bridge":null,"service":null,"tunnel":null,"layer":null,"bicycle":null,"access":null,"ref":null,"name":null,"lanes":null,"surface":null,"oneway":null},"geometry":{"type":"MultiLineString","coordinates":[[[29.897327,39.4813541],[29.8977128,39.4810697],[29.8981025,39.4807783],[29.8982984,39.4806377],[29.8985746,39.4808737],[29.8983842,39.4810167],[29.8980037,39.4813068],[29.8976976,39.4815445],[29.8977887,39.4816231],[29.8982089,39.482059]]]}},
{"type":"Feature","properties":{"full_id":"w1063528996","osm_id":"1063528996","osm_type":"way","highway":"footway","bridge":null,"service":null,"tunnel":null,"layer":null,"bicycle":null,"access":null,"ref":null,"name":null,"lanes":null,"surface":null,"oneway":null},"geometry":{"type":"MultiLineString","coordinates":[[[29.8977128,39.4810697],[29.8980037,39.4813068]]]}},
{"type":"Feature","properties":{"full_id":"w1063528997","osm_id":"1063528997","osm_type":"way","highway":"footway","bridge":null,"service":null,"tunnel":null,"layer":null,"bicycle":null,"access":null,"ref":null,"name":null,"lanes":null,"surface":null,"oneway":null},"geometry":{"type":"MultiLineString","coordinates":[[[29.8981025,39.4807783],[29.8983842,39.4810167]]]}},
{"type":"Feature","properties":{"full_id":"w1063534995","osm_id":"1063534995","osm_type":"way","highway":"footway","bridge":null,"service":null,"tunnel":null,"layer":null,"bicycle":null,"access":null,"ref":null,"name":null,"lanes":null,"surface":null,"oneway":null},"geometry":{"type":"MultiLineString","coordinates":[[[29.8994462,39.478874],[29.8990927,39.4785776],[29.8988831,39.4784018],[29.8985744,39.4781429]]]}},
{"type":"Feature","properties":{"full_id":"w1063534996","osm_id":"1063534996","osm_type":"way","highway":"footway","bridge":null,"service":null,"tunnel":null,"layer":null,"bicycle":null,"access":null,"ref":null,"name":null,"lanes":null,"surface":null,"oneway":null},"geometry":{"type":"MultiLineString","coordinates":[[[29.8985744,39.4781429],[29.8985945,39.4780828],[29.898569,39.4780311],[29.8985137,39.4780252],[29.898451,39.4780331],[29.8984135,39.4780849],[29.8984403,39.4781377],[29.89851,39.4781553],[29.8985744,39.4781429]]]}},
{"type":"Feature","properties":{"full_id":"w1063534997","osm_id":"1063534997","osm_type":"way","highway":"footway","bridge":null,"service":null,"tunnel":null,"layer":null,"bicycle":null,"access":null,"ref":null,"name":null,"lanes":null,"surface":null,"oneway":null},"geometry":{"type":"MultiLineString","coordinates":[[[29.898569,39.4780311],[29.8987713,39.4778954]]]}},
{"type":"Feature","properties":{"full_id":"w1063534998","osm_id":"1063534998","osm_type":"way","highway":"footway","bridge":null,"service":null,"tunnel":null,"layer":null,"bicycle":null,"access":null,"ref":null,"name":null,"lanes":null,"surface":null,"oneway":null},"geometry":{"type":"MultiLineString","coordinates":[[[29.898451,39.4780331],[29.8980557,39.4777327]]]}},
{"type":"Feature","properties":{"full_id":"w1063534999","osm_id":"1063534999","osm_type":"way","highway":"footway","bridge":null,"service":null,"tunnel":null,"layer":null,"bicycle":null,"access":null,"ref":null,"name":null,"lanes":null,"surface":null,"oneway":null},"geometry":{"type":"MultiLineString","coordinates":[[[29.8988831,39.4784018],[29.8982794,39.4783023],[29.8977855,39.4779355]]]}},
{"type":"Feature","properties":{"full_id":"w1063536296","osm_id":"1063536296","osm_type":"way","highway":"footway","bridge":null,"service":null,"tunnel":null,"layer":null,"bicycle":null,"access":null,"ref":null,"name":null,"lanes":null,"surface":null,"oneway":null},"geometry":{"type":"MultiLineString","coordinates":[[[29.8987984,39.4788154],[29.8990927,39.4785776]]]}},
{"type":"Feature","properties":{"full_id":"w1063536297","osm_id":"1063536297","osm_type":"way","highway":"footway","bridge":null,"service":null,"tunnel":null,"layer":null,"bicycle":null,"access":null,"ref":null,"name":null,"lanes":null,"surface":null,"oneway":null},"geometry":{"type":"MultiLineString","coordinates":[[[29.8985737,39.4786369],[29.8988831,39.4784018]]]}},
{"type":"Feature","properties":{"full_id":"w1063536298","osm_id":"1063536298","osm_type":"way","highway":"footway","bridge":null,"service":null,"tunnel":null,"layer":null,"bicycle":null,"access":null,"ref":null,"name":null,"lanes":null,"surface":null,"oneway":null},"geometry":{"type":"MultiLineString","coordinates":[[[29.8988831,39.4784018],[29.8991671,39.4781893]]]}},
{"type":"Feature","properties":{"full_id":"w1063536299","osm_id":"1063536299","osm_type":"way","highway":"footway","bridge":null,"service":null,"tunnel":null,"layer":null,"bicycle":null,"access":null,"ref":null,"name":null,"lanes":null,"surface":null,"oneway":null},"geometry":{"type":"MultiLineString","coordinates":[[[29.8990927,39.4785776],[29.899544,39.478235],[29.9001104,39.4778049]]]}},
{"type":"Feature","properties":{"full_id":"w1063536300","osm_id":"1063536300","osm_type":"way","highway":"footway","bridge":null,"service":null,"tunnel":null,"layer":null,"bicycle":null,"access":null,"ref":null,"name":null,"lanes":null,"surface":null,"oneway":null},"geometry":{"type":"MultiLineString","coordinates":[[[29.899544,39.478235],[29.8993639,39.478094]]]}},
{"type":"Feature","properties":{"full_id":"w1063939372","osm_id":"1063939372","osm_type":"way","highway":"footway","bridge":null,"service":null,"tunnel":null,"layer":null,"bicycle":null,"access":null,"ref":null,"name":null,"lanes":null,"surface":null,"oneway":null},"geometry":{"type":"MultiLineString","coordinates":[[[29.9021676,39.4780441],[29.9065341,39.4747995]]]}},
{"type":"Feature","properties":{"full_id":"w1063947533","osm_id":"1063947533","osm_type":"way","highway":"footway","bridge":null,"service":null,"tunnel":null,"layer":null,"bicycle":null,"access":null,"ref":null,"name":null,"lanes":null,"surface":null,"oneway":null},"geometry":{"type":"MultiLineString","coordinates":[[[29.8953957,39.4831329],[29.8952797,39.4830333],[29.8951113,39.4828886],[29.8952693,39.4827442],[29.8954869,39.4826195],[29.8956502,39.4827596],[29.8958248,39.4829093],[29.8956314,39.4830457],[29.8954547,39.4831702],[29.8953957,39.4831329]]]}},
{"type":"Feature","properties":{"full_id":"w1063947534","osm_id":"1063947534","osm_type":"way","highway":"footway","bridge":null,"service":null,"tunnel":null,"layer":null,"bicycle":null,"access":null,"ref":null,"name":null,"lanes":null,"surface":null,"oneway":null},"geometry":{"type":"MultiLineString","coordinates":[[[29.8947953,39.4824032],[29.8945197,39.4821778]]]}},
{"type":"Feature","properties":{"full_id":"w1063947535","osm_id":"1063947535","osm_type":"way","highway":"footway","bridge":null,"service":null,"tunnel":null,"layer":null,"bicycle":null,"access":null,"ref":null,"name":null,"lanes":null,"surface":null,"oneway":null},"geometry":{"type":"MultiLineString","coordinates":[[[29.8947953,39.4824032],[29.8949367,39.4825041]]]}},
{"type":"Feature","properties":{"full_id":"w1063947536","osm_id":"1063947536","osm_type":"way","highway":"footway","bridge":null,"service":null,"tunnel":"yes","layer":"-1","bicycle":null,"access":null,"ref":null,"name":null,"lanes":null,"surface":null,"oneway":null},"geometry":{"type":"MultiLineString","coordinates":[[[29.8949367,39.4825041],[29.8951408,39.4826557]]]}},
{"type":"Feature","properties":{"full_id":"w1063947537","osm_id":"1063947537","osm_type":"way","highway":"footway","bridge":null,"service":null,"tunnel":null,"layer":null,"bicycle":null,"access":null,"ref":null,"name":null,"lanes":null,"surface":null,"oneway":null},"geometry":{"type":"MultiLineString","coordinates":[[[29.8951408,39.4826557],[29.8952693,39.4827442]]]}},
{"type":"Feature","properties":{"full_id":"w1063947538","osm_id":"1063947538","osm_type":"way","highway":"footway","bridge":null,"service":null,"tunnel":null,"layer":null,"bicycle":null,"access":null,"ref":null,"name":null,"lanes":null,"surface":null,"oneway":null},"geometry":{"type":"MultiLineString","coordinates":[[[29.8956502,39.4827596],[29.8957865,39.4826667]]]}},
{"type":"Feature","properties":{"full_id":"w1063947539","osm_id":"1063947539","osm_type":"way","highway":"footway","bridge":null,"service":null,"tunnel":null,"layer":null,"bicycle":null,"access":null,"ref":null,"name":null,"lanes":null,"surface":null,"oneway":null},"geometry":{"type":"MultiLineString","coordinates":[[[29.8954466,39.4830015],[29.8955144,39.4829542],[29.8955861,39.4829042],[29.8955282,39.4828537],[29.8954627,39.4827965],[29.8953897,39.482854],[29.8953313,39.4829],[29.8953902,39.4829518],[29.8954466,39.4830015]]]}},
{"type":"Feature","properties":{"full_id":"w1063947540","osm_id":"1063947540","osm_type":"way","highway":"footway","bridge":null,"service":null,"tunnel":null,"layer":null,"bicycle":null,"access":null,"ref":null,"name":null,"lanes":null,"surface":null,"oneway":null},"geometry":{"type":"MultiLineString","coordinates":[[[29.8953902,39.4829518],[29.8952797,39.4830333],[29.8951507,39.4831283]]]}},
{"type":"Feature","properties":{"full_id":"w1063947541","osm_id":"1063947541","osm_type":"way","highway":"footway","bridge":null,"service":null,"tunnel":null,"layer":null,"bicycle":null,"access":null,"ref":null,"name":null,"lanes":null,"surface":null,"oneway":null},"geometry":{"type":"MultiLineString","coordinates":[[[29.8955144,39.4829542],[29.8956314,39.4830457],[29.8957204,39.4831152]]]}},
{"type":"Feature","properties":{"full_id":"w1063947542","osm_id":"1063947542","osm_type":"way","highway":"footway","bridge":null,"service":null,"tunnel":null,"layer":null,"bicycle":null,"access":null,"ref":null,"name":null,"lanes":null,"surface":null,"oneway":null},"geometry":{"type":"MultiLineString","coordinates":[[[29.8953897,39.482854],[29.8952693,39.4827442]]]}},
{"type":"Feature","properties":{"full_id":"w1063947543","osm_id":"1063947543","osm_type":"way","highway":"footway","bridge":null,"service":null,"tunnel":null,"layer":null,"bicycle":null,"access":null,"ref":null,"name":null,"lanes":null,"surface":null,"oneway":null},"geometry":{"type":"MultiLineString","coordinates":[[[29.8955282,39.4828537],[29.8956502,39.4827596]]]}},
{"type":"Feature","properties":{"full_id":"w1063952826","osm_id":"1063952826","osm_type":"way","highway":"footway","bridge":null,"service":null,"tunnel":null,"layer":null,"bicycle":null,"access":null,"ref":null,"name":null,"lanes":null,"surface":null,"oneway":null},"geometry":{"type":"MultiLineString","coordinates":[[[29.8996523,39.4787208],[29.8998989,39.4788773],[29.9002479,39.4791428],[29.9002784,39.479166],[29.9005094,39.4793698],[29.9005919,39.4794462],[29.9011459,39.479901],[29.9015481,39.4802311]]]}},
{"type":"Feature","properties":{"full_id":"w1063952827","osm_id":"1063952827","osm_type":"way","highway":"footway","bridge":null,"service":null,"tunnel":null,"layer":null,"bicycle":null,"access":null,"ref":null,"name":null,"lanes":null,"surface":null,"oneway":null},"geometry":{"type":"MultiLineString","coordinates":[[[29.900605,39.4802898],[29.9011459,39.479901]]]}},
{"type":"Feature","properties":{"full_id":"w1063952828","osm_id":"1063952828","osm_type":"way","highway":"footway","bridge":null,"service":null,"tunnel":null,"layer":null,"bicycle":null,"access":null,"ref":null,"name":null,"lanes":null,"surface":null,"oneway":null},"geometry":{"type":"MultiLineString","coordinates":[[[29.9003114,39.4795353],[29.9005094,39.4793698],[29.9008604,39.4791274],[29.9011364,39.4789367],[29.9008449,39.4786905]]]}},
{"type":"Feature","properties":{"full_id":"w1063952829","osm_id":"1063952829","osm_type":"way","highway":"footway","bridge":null,"service":null,"tunnel":null,"layer":null,"bicycle":null,"access":null,"ref":null,"name":null,"lanes":null,"surface":null,"oneway":null},"geometry":{"type":"MultiLineString","coordinates":[[[29.9008449,39.4786905],[29.9005784,39.4788924],[29.9002479,39.4791428],[29.9000364,39.4793188],[29.9003114,39.4795353]]]}},
{"type":"Feature","properties":{"full_id":"w1063952830","osm_id":"1063952830","osm_type":"way","highway":"footway","bridge":null,"service":null,"tunnel":null,"layer":null,"bicycle":null,"access":null,"ref":null,"name":null,"lanes":null,"surface":null,"oneway":null},"geometry":{"type":"MultiLineString","coordinates":[[[29.9008604,39.4791274],[29.9005784,39.4788924]]]}},
{"type":"Feature","properties":{"full_id":"w1063952836","osm_id":"1063952836","osm_type":"way","highway":"footway","bridge":null,"service":null,"tunnel":null,"layer":null,"bicycle":null,"access":null,"ref":null,"name":null,"lanes":null,"surface":null,"oneway":null},"geometry":{"type":"MultiLineString","coordinates":[[[29.9002021,39.4805848],[29.900605,39.4802898]]]}},
{"type":"Feature","properties":{"full_id":"w1063979412","osm_id":"1063979412","osm_type":"way","highway":"footway","bridge":null,"service":null,"tunnel":null,"layer":null,"bicycle":null,"access":null,"ref":null,"name":null,"lanes":null,"surface":null,"oneway":null},"geometry":{"type":"MultiLineString","coordinates":[[[29.9011821,39.4780843],[29.9012411,39.4780429],[29.9016008,39.4777817]]]}},
{"type":"Feature","properties":{"full_id":"w1063979413","osm_id":"1063979413","osm_type":"way","highway":"footway","bridge":null,"service":null,"tunnel":null,"layer":null,"bicycle":null,"access":null,"ref":null,"name":null,"lanes":null,"surface":null,"oneway":null},"geometry":{"type":"MultiLineString","coordinates":[[[29.9016139,39.4783766],[29.9016353,39.4783614],[29.9020004,39.4781024]]]}},
{"type":"Feature","properties":{"full_id":"w1063979414","osm_id":"1063979414","osm_type":"way","highway":"footway","bridge":null,"service":null,"tunnel":null,"layer":null,"bicycle":null,"access":null,"ref":null,"name":null,"lanes":null,"surface":null,"oneway":null},"geometry":{"type":"MultiLineString","coordinates":[[[29.9019599,39.4787012],[29.9020108,39.4786649],[29.9023766,39.4784043]]]}},
{"type":"Feature","properties":{"full_id":"w1063979415","osm_id":"1063979415","osm_type":"way","highway":"footway","bridge":null,"service":null,"tunnel":null,"layer":null,"bicycle":null,"access":null,"ref":null,"name":null,"lanes":null,"surface":null,"oneway":null},"geometry":{"type":"MultiLineString","coordinates":[[[29.902322,39.4796495],[29.9019049,39.479316],[29.9016771,39.4791018],[29.9013016,39.4788202],[29.9011364,39.4789367]]]}},
{"type":"Feature","properties":{"full_id":"w1063979416","osm_id":"1063979416","osm_type":"way","highway":"footway","bridge":null,"service":null,"tunnel":null,"layer":null,"bicycle":null,"access":null,"ref":null,"name":null,"lanes":null,"surface":null,"oneway":null},"geometry":{"type":"MultiLineString","coordinates":[[[29.9004808,39.4781051],[29.9010226,39.4785635],[29.9008449,39.4786905]]]}},
{"type":"Feature","properties":{"full_id":"w1063979417","osm_id":"1063979417","osm_type":"way","highway":"footway","bridge":null,"service":null,"tunnel":null,"layer":null,"bicycle":null,"access":null,"ref":null,"name":null,"lanes":null,"surface":null,"oneway":null},"geometry":{"type":"MultiLineString","coordinates":[[[29.9023904,39.478964],[29.9027583,39.4787105]]]}},
{"type":"Feature","properties":{"full_id":"w1063979418","osm_id":"1063979418","osm_type":"way","highway":"footway","bridge":null,"service":null,"tunnel":null,"layer":null,"bicycle":null,"access":null,"ref":null,"name":null,"lanes":null,"surface":null,"oneway":null},"geometry":{"type":"MultiLineString","coordinates":[[[29.9020521,39.4789898],[29.9021952,39.4791055],[29.9026109,39.4794419]]]}},
{"type":"Feature","properties":{"full_id":"w1063979419","osm_id":"1063979419","osm_type":"way","highway":"footway","bridge":null,"service":null,"tunnel":null,"layer":null,"bicycle":null,"access":null,"ref":null,"name":null,"lanes":null,"surface":null,"oneway":null},"geometry":{"type":"MultiLineString","coordinates":[[[29.9001104,39.4778049],[29.9008908,39.477212]]]}},
{"type":"Feature","properties":{"full_id":"w1063979420","osm_id":"1063979420","osm_type":"way","highway":"footway","bridge":null,"service":null,"tunnel":null,"layer":null,"bicycle":null,"access":null,"ref":null,"name":null,"lanes":null,"surface":null,"oneway":null},"geometry":{"type":"MultiLineString","coordinates":[[[29.9013509,39.4759397],[29.9022833,39.4755325],[29.9025944,39.475458],[29.9026203,39.4754577],[29.9029431,39.4754538],[29.9032382,39.4753917],[29.9033455,39.4753538],[29.9033669,39.4753462],[29.9035225,39.4751805],[29.9036082,39.4751193],[29.9038068,39.4749776],[29.9041072,39.4747458],[29.9043915,39.4745594],[29.904531,39.4747044]]]}},
{"type":"Feature","properties":{"full_id":"w1063979422","osm_id":"1063979422","osm_type":"way","highway":"service","bridge":null,"service":null,"tunnel":null,"layer":null,"bicycle":null,"access":null,"ref":null,"name":null,"lanes":null,"surface":null,"oneway":null},"geometry":{"type":"MultiLineString","coordinates":[[[29.9020241,39.4768789],[29.9022457,39.4769072],[29.9024174,39.4768658],[29.9029163,39.4765594],[29.9052284,39.474899]]]}},
{"type":"Feature","properties":{"full_id":"w1063979423","osm_id":"1063979423","osm_type":"way","highway":"service","bridge":null,"service":null,"tunnel":null,"layer":null,"bicycle":null,"access":null,"ref":null,"name":null,"lanes":null,"surface":null,"oneway":null},"geometry":{"type":"MultiLineString","coordinates":[[[29.9052284,39.474899],[29.9049682,39.4746436]]]}},
{"type":"Feature","properties":{"full_id":"w1063979424","osm_id":"1063979424","osm_type":"way","highway":"service","bridge":null,"service":null,"tunnel":null,"layer":null,"bicycle":null,"access":null,"ref":null,"name":null,"lanes":null,"surface":null,"oneway":null},"geometry":{"type":"MultiLineString","coordinates":[[[29.9046347,39.4736697],[29.9045015,39.4738441],[29.9043513,39.4739435],[29.9041045,39.4740097],[29.904028,39.4740097],[29.9037934,39.4740097],[29.9033213,39.4741754],[29.9029994,39.4743907],[29.9027634,39.4744983],[29.9025166,39.4745563],[29.9022484,39.4746888],[29.9019158,39.4748545],[29.9016905,39.4749456],[29.9013365,39.4749621],[29.9010253,39.4749704],[29.9008523,39.4750057],[29.9006605,39.4750449],[29.9003764,39.4751159],[29.9002958,39.475136],[29.8999524,39.4753514],[29.8996413,39.4755253],[29.8995448,39.4755667],[29.8993624,39.4755584],[29.8991371,39.475459],[29.8990379,39.4755362],[29.8988464,39.475684],[29.8986878,39.4758022],[29.8986002,39.4758783],[29.8983923,39.4757769],[29.8982227,39.4756291],[29.8980614,39.4755299]]]}},
{"type":"Feature","properties":{"full_id":"w1085818478","osm_id":"1085818478","osm_type":"way","highway":"footway","bridge":null,"service":null,"tunnel":null,"layer":null,"bicycle":null,"access":null,"ref":null,"name":null,"lanes":null,"surface":null,"oneway":null},"geometry":{"type":"MultiLineString","coordinates":[[[29.8895686,39.4808482],[29.8896161,39.4807011],[29.8898596,39.4799379]]]}},
{"type":"Feature","properties":{"full_id":"w1085818479","osm_id":"1085818479","osm_type":"way","highway":"footway","bridge":null,"service":null,"tunnel":null,"layer":null,"bicycle":null,"access":null,"ref":null,"name":null,"lanes":null,"surface":null,"oneway":null},"geometry":{"type":"MultiLineString","coordinates":[[[29.889223,39.4797832],[29.8893323,39.4798087],[29.8898596,39.4799379],[29.8901708,39.4799975],[29.8905456,39.4800971],[29.8905987,39.480124]]]}},
{"type":"Feature","properties":{"full_id":"w1085818483","osm_id":"1085818483","osm_type":"way","highway":"residential","bridge":null,"service":null,"tunnel":null,"layer":null,"bicycle":null,"access":null,"ref":null,"name":null,"lanes":null,"surface":null,"oneway":null},"geometry":{"type":"MultiLineString","coordinates":[[[29.892588,39.4775124],[29.8962706,39.4748767]]]}},
{"type":"Feature","properties":{"full_id":"w1085818484","osm_id":"1085818484","osm_type":"way","highway":"service","bridge":null,"service":"parking_aisle","tunnel":null,"layer":null,"bicycle":null,"access":null,"ref":null,"name":null,"lanes":null,"surface":null,"oneway":null},"geometry":{"type":"MultiLineString","coordinates":[[[29.8927282,39.4846649],[29.8928174,39.4849553],[29.8928023,39.4850133],[29.8927551,39.4850671],[29.8926242,39.4851557],[29.8925545,39.4851971],[29.8924708,39.4852087],[29.8920662,39.4851249]]]}},
{"type":"Feature","properties":{"full_id":"w1085818486","osm_id":"1085818486","osm_type":"way","highway":"residential","bridge":null,"service":null,"tunnel":null,"layer":null,"bicycle":null,"access":null,"ref":null,"name":null,"lanes":null,"surface":null,"oneway":null},"geometry":{"type":"MultiLineString","coordinates":[[[29.8942401,39.4836388],[29.8932299,39.4842962],[29.8931465,39.4843505]]]}},
{"type":"Feature","properties":{"full_id":"w1085818492","osm_id":"1085818492","osm_type":"way","highway":"service","bridge":null,"service":"parking_aisle","tunnel":null,"layer":null,"bicycle":null,"access":null,"ref":null,"name":null,"lanes":null,"surface":null,"oneway":null},"geometry":{"type":"MultiLineString","coordinates":[[[29.9068477,39.4750545],[29.9061608,39.4755262]]]}},
{"type":"Feature","properties":{"full_id":"w1085818494","osm_id":"1085818494","osm_type":"way","highway":"service","bridge":null,"service":"parking_aisle","tunnel":null,"layer":null,"bicycle":null,"access":null,"ref":null,"name":null,"lanes":null,"surface":null,"oneway":null},"geometry":{"type":"MultiLineString","coordinates":[[[29.9048395,39.477805],[29.9047823,39.4776962],[29.904757,39.4775736],[29.9065849,39.4762686],[29.9068953,39.4763157]]]}},
{"type":"Feature","properties":{"full_id":"w1085818501","osm_id":"1085818501","osm_type":"way","highway":"service","bridge":null,"service":"parking_aisle","tunnel":null,"layer":null,"bicycle":null,"access":null,"ref":null,"name":null,"lanes":null,"surface":null,"oneway":null},"geometry":{"type":"MultiLineString","coordinates":[[[29.8932299,39.4842962],[29.8937177,39.4847187],[29.8937199,39.4847858],[29.8936631,39.4848201],[29.8936254,39.4848429],[29.89356,39.4848429],[29.8930686,39.4844091]]]}},
{"type":"Feature","properties":{"full_id":"w1085818502","osm_id":"1085818502","osm_type":"way","highway":"service","bridge":null,"service":"parking_aisle","tunnel":null,"layer":null,"bicycle":null,"access":null,"ref":null,"name":null,"lanes":null,"surface":null,"oneway":null},"geometry":{"type":"MultiLineString","coordinates":[[[29.8936631,39.4848201],[29.8939398,39.4851494],[29.8939712,39.4851868]]]}},
{"type":"Feature","properties":{"full_id":"w1085818503","osm_id":"1085818503","osm_type":"way","highway":"service","bridge":null,"service":null,"tunnel":null,"layer":null,"bicycle":null,"access":null,"ref":null,"name":null,"lanes":null,"surface":null,"oneway":"yes"},"geometry":{"type":"MultiLineString","coordinates":[[[29.8959254,39.4854269],[29.8959507,39.4854053],[29.896097,39.4852986],[29.8965221,39.4846773],[29.8966702,39.4844609],[29.8968224,39.4842636],[29.8969619,39.4840827],[29.8972057,39.4837667],[29.8972539,39.4836973],[29.8973492,39.4835603],[29.8975606,39.4832591],[29.8976151,39.4831356]]]}},
{"type":"Feature","properties":{"full_id":"w1085818504","osm_id":"1085818504","osm_type":"way","highway":"service","bridge":null,"service":null,"tunnel":null,"layer":null,"bicycle":null,"access":null,"ref":null,"name":null,"lanes":null,"surface":null,"oneway":null},"geometry":{"type":"MultiLineString","coordinates":[[[29.8970866,39.4859617],[29.8960454,39.4854732],[29.8959254,39.4854269],[29.8956389,39.4853129],[29.8951392,39.4850714]]]}},
{"type":"Feature","properties":{"full_id":"w1089072327","osm_id":"1089072327","osm_type":"way","highway":"unclassified","bridge":null,"service":null,"tunnel":null,"layer":null,"bicycle":null,"access":null,"ref":null,"name":null,"lanes":null,"surface":null,"oneway":null},"geometry":{"type":"MultiLineString","coordinates":[[[29.9008523,39.4750057],[29.9009279,39.4747553],[29.9009976,39.4746262],[29.9012179,39.4744389],[29.9014688,39.474228],[29.9017393,39.4738707],[29.9018871,39.4736447],[29.9019791,39.4734596],[29.9020265,39.4731798],[29.9020785,39.4730459],[29.9020934,39.4730076],[29.9023779,39.4728289],[29.9028519,39.4725599],[29.9030889,39.4724501],[29.9032813,39.4724113],[29.9034068,39.472519],[29.9046085,39.4736124],[29.9046347,39.4736697]]]}},
{"type":"Feature","properties":{"full_id":"w1089072328","osm_id":"1089072328","osm_type":"way","highway":"unclassified","bridge":null,"service":null,"tunnel":null,"layer":null,"bicycle":null,"access":null,"ref":null,"name":null,"lanes":null,"surface":null,"oneway":null},"geometry":{"type":"MultiLineString","coordinates":[[[29.9020785,39.4730459],[29.9019477,39.4730505],[29.9018123,39.4731347],[29.9017295,39.4732828],[29.9016355,39.4734425],[29.9015452,39.4735471],[29.9011239,39.4737532],[29.9008418,39.4739391],[29.9004919,39.4742091],[29.9001797,39.474395],[29.8999803,39.4744966],[29.899638,39.474453],[29.8993295,39.4744647],[29.8991565,39.4746708],[29.8990474,39.4748102],[29.8987051,39.4749699]]]}},
{"type":"Feature","properties":{"full_id":"w1089072329","osm_id":"1089072329","osm_type":"way","highway":"unclassified","bridge":null,"service":null,"tunnel":null,"layer":null,"bicycle":null,"access":null,"ref":null,"name":null,"lanes":null,"surface":null,"oneway":null},"geometry":{"type":"MultiLineString","coordinates":[[[29.9003764,39.4751159],[29.9002084,39.4749682],[29.9000606,39.474824],[29.9000049,39.47474],[29.899963,39.4745872],[29.8999803,39.4744966]]]}},
{"type":"Feature","properties":{"full_id":"w1089072332","osm_id":"1089072332","osm_type":"way","highway":"footway","bridge":null,"service":null,"tunnel":null,"layer":null,"bicycle":null,"access":null,"ref":null,"name":null,"lanes":null,"surface":null,"oneway":null},"geometry":{"type":"MultiLineString","coordinates":[[[29.904028,39.4740097],[29.9038663,39.4741728],[29.9035736,39.4742537],[29.9034338,39.4743752],[29.903259,39.4744123],[29.9031716,39.4745101],[29.9029269,39.474618],[29.9027259,39.4746787],[29.9023895,39.4747765],[29.9019482,39.4750227],[29.9019135,39.4750495],[29.9018783,39.4750767],[29.9016554,39.4751441],[29.901437,39.4751543],[29.9013451,39.4751606],[29.9012404,39.4751678],[29.9008864,39.4751408]]]}},
{"type":"Feature","properties":{"full_id":"w1089072333","osm_id":"1089072333","osm_type":"way","highway":"footway","bridge":null,"service":null,"tunnel":null,"layer":null,"bicycle":null,"access":null,"ref":null,"name":null,"lanes":null,"surface":null,"oneway":null},"geometry":{"type":"MultiLineString","coordinates":[[[29.9041238,39.4742744],[29.9038693,39.4743337],[29.9035866,39.4744822],[29.9035764,39.4744875],[29.9034036,39.4745895],[29.903322,39.4746469],[29.9031827,39.4747136],[29.9030387,39.4747951],[29.9027602,39.4748915],[29.9025562,39.474936],[29.9024601,39.4749693],[29.9022909,39.4750567],[29.9020688,39.4751713],[29.9019356,39.4750669],[29.9019135,39.4750495]]]}},
{"type":"Feature","properties":{"full_id":"w1089072334","osm_id":"1089072334","osm_type":"way","highway":"footway","bridge":null,"service":null,"tunnel":null,"layer":null,"bicycle":null,"access":null,"ref":null,"name":null,"lanes":null,"surface":null,"oneway":null},"geometry":{"type":"MultiLineString","coordinates":[[[29.9022909,39.4750567],[29.9024621,39.4750797],[29.9026068,39.4750325],[29.902656,39.4750165],[29.9027602,39.4748915]]]}},
{"type":"Feature","properties":{"full_id":"w1089072335","osm_id":"1089072335","osm_type":"way","highway":"footway","bridge":null,"service":null,"tunnel":null,"layer":null,"bicycle":null,"access":null,"ref":null,"name":null,"lanes":null,"surface":null,"oneway":null},"geometry":{"type":"MultiLineString","coordinates":[[[29.9026203,39.4754577],[29.9026958,39.4752331],[29.9026904,39.4751876],[29.9026846,39.4751384],[29.9026068,39.4750325]]]}},
{"type":"Feature","properties":{"full_id":"w1089072336","osm_id":"1089072336","osm_type":"way","highway":"footway","bridge":null,"service":null,"tunnel":null,"layer":null,"bicycle":null,"access":null,"ref":null,"name":null,"lanes":null,"surface":null,"oneway":null},"geometry":{"type":"MultiLineString","coordinates":[[[29.9033455,39.4753538],[29.9032172,39.4749769],[29.9033454,39.4749145],[29.9034653,39.4748715],[29.9034904,39.4749855],[29.9035574,39.4750738],[29.9036082,39.4751193]]]}},
{"type":"Feature","properties":{"full_id":"w1089072337","osm_id":"1089072337","osm_type":"way","highway":"footway","bridge":null,"service":null,"tunnel":null,"layer":null,"bicycle":null,"access":null,"ref":null,"name":null,"lanes":null,"surface":null,"oneway":null},"geometry":{"type":"MultiLineString","coordinates":[[[29.9043915,39.4745594],[29.9043761,39.4745024],[29.904346,39.4743909],[29.9041647,39.474421],[29.904003,39.4744662],[29.903897,39.474505],[29.9037325,39.474604],[29.90359,39.4746753],[29.9035097,39.4747557],[29.903481,39.4748307],[29.9034653,39.4748715]]]}},
{"type":"Feature","properties":{"full_id":"w1089072338","osm_id":"1089072338","osm_type":"way","highway":"footway","bridge":null,"service":null,"tunnel":null,"layer":null,"bicycle":null,"access":null,"ref":null,"name":null,"lanes":null,"surface":null,"oneway":null},"geometry":{"type":"MultiLineString","coordinates":[[[29.90359,39.4746753],[29.9035169,39.4746279],[29.9035685,39.4745895],[29.903629,39.4745497],[29.9036112,39.4745043],[29.9035866,39.4744822]]]}},
{"type":"Feature","properties":{"full_id":"w1089072339","osm_id":"1089072339","osm_type":"way","highway":"footway","bridge":null,"service":null,"tunnel":null,"layer":null,"bicycle":null,"access":null,"ref":null,"name":null,"lanes":null,"surface":null,"oneway":null},"geometry":{"type":"MultiLineString","coordinates":[[[29.9043761,39.4745024],[29.9041764,39.4745137],[29.9040393,39.4745563],[29.9038578,39.4746401],[29.9036568,39.4747623],[29.9035429,39.474809],[29.903481,39.4748307]]]}},
{"type":"Feature","properties":{"full_id":"w1090481370","osm_id":"1090481370","osm_type":"way","highway":"track","bridge":null,"service":null,"tunnel":null,"layer":null,"bicycle":null,"access":null,"ref":null,"name":null,"lanes":null,"surface":null,"oneway":null},"geometry":{"type":"MultiLineString","coordinates":[[[29.889714214095047,39.49238751385181],[29.8896717,39.492376],[29.8895375,39.4922976],[29.889444,39.4920874],[29.8887407,39.4913783],[29.8886228,39.4911618],[29.8885862,39.4909265],[29.8887082,39.4906944],[29.8888545,39.4904998],[29.888883,39.4902865],[29.8888586,39.4902049],[29.8887285,39.4901328],[29.8884073,39.4900794],[29.888265,39.4900292],[29.8882284,39.4899602],[29.8884032,39.4896339],[29.8888586,39.488928],[29.8888179,39.4888181],[29.8887204,39.488724],[29.8883057,39.4886299],[29.8878788,39.4884322],[29.8878056,39.4883883],[29.8877117,39.4883765]]]}},
{"type":"Feature","properties":{"full_id":"w1090481371","osm_id":"1090481371","osm_type":"way","highway":"track","bridge":null,"service":null,"tunnel":null,"layer":null,"bicycle":null,"access":null,"ref":null,"name":null,"lanes":null,"surface":null,"oneway":null},"geometry":{"type":"MultiLineString","coordinates":[[[29.8888586,39.4902049],[29.8890757,39.4896182],[29.8890188,39.4893546],[29.8889456,39.4892354],[29.8889293,39.4890911],[29.8888586,39.488928]]]}},
{"type":"Feature","properties":{"full_id":"w1090481372","osm_id":"1090481372","osm_type":"way","highway":"service","bridge":null,"service":null,"tunnel":null,"layer":null,"bicycle":null,"access":null,"ref":null,"name":null,"lanes":null,"surface":null,"oneway":"yes"},"geometry":{"type":"MultiLineString","coordinates":[[[29.8910006,39.4765666],[29.8928632,39.4752364],[29.8934847,39.4747852],[29.8939139,39.4745053],[29.8941803,39.4744082],[29.8944689,39.4743568],[29.8954752,39.4743568],[29.8959709,39.4745111],[29.8963039,39.4747567],[29.8963702,39.4748101],[29.8965175,39.4749288],[29.8976104,39.4758097],[29.8976466,39.4758388],[29.8989546,39.4768823]]]}},
{"type":"Feature","properties":{"full_id":"w1090481373","osm_id":"1090481373","osm_type":"way","highway":"service","bridge":null,"service":null,"tunnel":null,"layer":null,"bicycle":null,"access":null,"ref":null,"name":null,"lanes":null,"surface":null,"oneway":"yes"},"geometry":{"type":"MultiLineString","coordinates":[[[29.8988571,39.4769555],[29.8975994,39.4759159],[29.8964977,39.4750498],[29.8964258,39.474995],[29.8962706,39.4748767],[29.8961765,39.474805],[29.8958676,39.4745853],[29.8954813,39.4744598],[29.895026,39.474441],[29.8944243,39.4744724],[29.8940787,39.4745477],[29.8929851,39.4752851],[29.89122,39.476512]]]}},
{"type":"Feature","properties":{"full_id":"w1090481374","osm_id":"1090481374","osm_type":"way","highway":"service","bridge":null,"service":null,"tunnel":null,"layer":null,"bicycle":null,"access":null,"ref":null,"name":null,"lanes":null,"surface":null,"oneway":"yes"},"geometry":{"type":"MultiLineString","coordinates":[[[29.8965175,39.4749288],[29.8964258,39.474995]]]}},
{"type":"Feature","properties":{"full_id":"w1090481375","osm_id":"1090481375","osm_type":"way","highway":"service","bridge":null,"service":null,"tunnel":null,"layer":null,"bicycle":null,"access":null,"ref":null,"name":null,"lanes":null,"surface":null,"oneway":"yes"},"geometry":{"type":"MultiLineString","coordinates":[[[29.8962706,39.4748767],[29.8963702,39.4748101]]]}},
{"type":"Feature","properties":{"full_id":"w1090481376","osm_id":"1090481376","osm_type":"way","highway":"service","bridge":null,"service":null,"tunnel":null,"layer":null,"bicycle":null,"access":null,"ref":null,"name":null,"lanes":null,"surface":null,"oneway":null},"geometry":{"type":"MultiLineString","coordinates":[[[29.8976104,39.4758097],[29.8980614,39.4755299],[29.8987051,39.4749699]]]}},
{"type":"Feature","properties":{"full_id":"w1090481377","osm_id":"1090481377","osm_type":"way","highway":"service","bridge":null,"service":null,"tunnel":null,"layer":null,"bicycle":null,"access":null,"ref":null,"name":null,"lanes":null,"surface":null,"oneway":"yes"},"geometry":{"type":"MultiLineString","coordinates":[[[29.900433038704012,39.483062027713643],[29.9002934,39.4831597],[29.9001411,39.4832294]]]}},
{"type":"Feature","properties":{"full_id":"w1420966613","osm_id":"1420966613","osm_type":"way","highway":"tertiary","bridge":null,"service":null,"tunnel":null,"layer":null,"bicycle":null,"access":null,"ref":null,"name":null,"lanes":null,"surface":null,"oneway":"yes"},"geometry":{"type":"MultiLineString","coordinates":[[[29.9065227,39.4771257],[29.9067032,39.4771823],[29.906839829856786,39.477269777844747]]]}},
{"type":"Feature","properties":{"full_id":"w1420966616","osm_id":"1420966616","osm_type":"way","highway":"trunk_link","bridge":null,"service":null,"tunnel":null,"layer":null,"bicycle":null,"access":null,"ref":null,"name":null,"lanes":null,"surface":"asphalt","oneway":"yes"},"geometry":{"type":"MultiLineString","coordinates":[[[29.9065227,39.4771257],[29.9069651,39.4768293],[29.907433668496466,39.476608116111386]]]}},
{"type":"Feature","properties":{"full_id":"w1420966619","osm_id":"1420966619","osm_type":"way","highway":"tertiary","bridge":null,"service":null,"tunnel":null,"layer":null,"bicycle":null,"access":null,"ref":null,"name":null,"lanes":null,"surface":null,"oneway":"yes"},"geometry":{"type":"MultiLineString","coordinates":[[[29.906601828269338,39.477534961907175],[29.9065782,39.4775159],[29.9064776,39.4773445],[29.9064255,39.4771953]]]}}
]
}
