{
"type": "FeatureCollection",
"name": "kampus_binalar",
"crs": { "type": "name", "properties": { "name": "urn:ogc:def:crs:OGC:1.3:CRS84" } },
"features": [
{"type":"Feature","properties":{"full_id":"w485726136","osm_id":"485726136","osm_type":"way","building":"mosque","name":null,"building:levels":null,"religion":"muslim","denomination":"sunni","amenity":"place_of_worship","waterway":null,"isim":null},"geometry":{"type":"MultiPolygon","coordinates":[[[[29.8926708,39.4791934],[29.8928392,39.4789427],[29.8932422,39.4791039],[29.8930738,39.4793546],[29.8926708,39.4791934]]]]}},
{"type":"Feature","properties":{"full_id":"w983613797","osm_id":"983613797","osm_type":"way","building":"yes","name":null,"building:levels":null,"religion":null,"denomination":null,"amenity":null,"waterway":null,"isim":null},"geometry":{"type":"MultiPolygon","coordinates":[[[[29.8933181,39.4841253],[29.892854,39.4837408],[29.8934629,39.4832841],[29.893927,39.4836685],[29.8933181,39.4841253]]]]}},
{"type":"Feature","properties":{"full_id":"w983613798","osm_id":"983613798","osm_type":"way","building":"yes","name":null,"building:levels":null,"religion":null,"denomination":null,"amenity":null,"waterway":null,"isim":null},"geometry":{"type":"MultiPolygon","coordinates":[[[[29.8981385,39.4752901],[29.897812,39.4750153],[29.8979002,39.4749449],[29.8982385,39.4752174],[29.8981385,39.4752901]]]]}},
{"type":"Feature","properties":{"full_id":"w983613799","osm_id":"983613799","osm_type":"way","building":"yes","name":null,"building:levels":null,"religion":null,"denomination":null,"amenity":null,"waterway":null,"isim":null},"geometry":{"type":"MultiPolygon","coordinates":[[[[29.8984209,39.4750744],[29.898115,39.4748041],[29.8982062,39.4747337],[29.8985298,39.4749972],[29.8984209,39.4750744]]]]}},
{"type":"Feature","properties":{"full_id":"w983613800","osm_id":"983613800","osm_type":"way","building":"yes","name":null,"building:levels":null,"religion":null,"denomination":null,"amenity":null,"waterway":null,"isim":null},"geometry":{"type":"MultiPolygon","coordinates":[[[[29.8989593,39.475499],[29.8986357,39.4752311],[29.8987328,39.4751561],[29.8990652,39.4754218],[29.8989593,39.475499]]]]}},
{"type":"Feature","properties":{"full_id":"w983613801","osm_id":"983613801","osm_type":"way","building":"yes","name":null,"building:levels":null,"religion":null,"denomination":null,"amenity":null,"waterway":null,"isim":null},"geometry":{"type":"MultiPolygon","coordinates":[[[[29.8986769,39.4757307],[29.8983503,39.4754491],[29.8984356,39.4753832],[29.8987857,39.4756557],[29.8986769,39.4757307]]]]}},
{"type":"Feature","properties":{"full_id":"w983613802","osm_id":"983613802","osm_type":"way","building":"yes","name":null,"building:levels":null,"religion":null,"denomination":null,"amenity":null,"waterway":null,"isim":null},"geometry":{"type":"MultiPolygon","coordinates":[[[[29.9006156,39.478794],[29.9003479,39.4785669],[29.9006656,39.4783466],[29.9009363,39.4785555],[29.9006156,39.478794]]]]}},
{"type":"Feature","properties":{"full_id":"w983613803","osm_id":"983613803","osm_type":"way","building":"yes","name":null,"building:levels":null,"religion":null,"denomination":null,"amenity":null,"waterway":null,"isim":null},"geometry":{"type":"MultiPolygon","coordinates":[[[[29.9002214,39.4790937],[29.8999507,39.4788598],[29.9002832,39.4786146],[29.9005626,39.4788462],[29.9002214,39.4790937]]]]}},
{"type":"Feature","properties":{"full_id":"w983613804","osm_id":"983613804","osm_type":"way","building":"yes","name":null,"building:levels":null,"religion":null,"denomination":null,"amenity":null,"waterway":null,"isim":null},"geometry":{"type":"MultiPolygon","coordinates":[[[[29.8993476,39.4790233],[29.89953,39.4788848],[29.8997507,39.4790596],[29.8999272,39.4789325],[29.9001184,39.4790823],[29.8998831,39.479264],[29.9003802,39.4796568],[29.9006068,39.4794865],[29.9008009,39.4796364],[29.9006303,39.4797636],[29.9008127,39.4798907],[29.9006215,39.4800406],[29.9002949,39.4797908],[29.9002655,39.4798158],[29.899686,39.4793457],[29.8997183,39.4793208],[29.8993476,39.4790233]]]]}},
{"type":"Feature","properties":{"full_id":"w983613805","osm_id":"983613805","osm_type":"way","building":"yes","name":null,"building:levels":null,"religion":null,"denomination":null,"amenity":null,"waterway":null,"isim":null},"geometry":{"type":"MultiPolygon","coordinates":[[[[29.9009186,39.4796387],[29.9006421,39.4794093],[29.9009657,39.4791732],[29.9012481,39.4793889],[29.9009186,39.4796387]]]]}},
{"type":"Feature","properties":{"full_id":"w983613806","osm_id":"983613806","osm_type":"way","building":"yes","name":null,"building:levels":null,"religion":null,"denomination":null,"amenity":null,"waterway":null,"isim":null},"geometry":{"type":"MultiPolygon","coordinates":[[[[29.9013099,39.4793321],[29.9010451,39.4791164],[29.901357,39.4788802],[29.9016335,39.4791005],[29.9013099,39.4793321]]]]}},
{"type":"Feature","properties":{"full_id":"w983613807","osm_id":"983613807","osm_type":"way","building":"yes","name":null,"building:levels":null,"religion":null,"denomination":null,"amenity":null,"waterway":null,"isim":null},"geometry":{"type":"MultiPolygon","coordinates":[[[[29.90166,39.4790278],[29.9014717,39.4788621],[29.9017071,39.4787009],[29.9014952,39.4785192],[29.9014658,39.4785351],[29.9014011,39.4784806],[29.9014246,39.4784647],[29.901201,39.4782762],[29.9009657,39.4784738],[29.9007833,39.4783239],[29.9009657,39.4781877],[29.900948,39.4781718],[29.9009274,39.4781831],[29.9007245,39.4780174],[29.9009186,39.4778743],[29.9011821,39.4780843],[29.9012805,39.4781627],[29.9013158,39.4781377],[29.9016139,39.4783766],[29.9017041,39.4784488],[29.9018953,39.4785987],[29.901863,39.4786237],[29.9019599,39.4787012],[29.9021866,39.4788825],[29.9020521,39.4789898],[29.9020101,39.4790233],[29.9018394,39.4789007],[29.90166,39.4790278]]]]}},
{"type":"Feature","properties":{"full_id":"w1062957867","osm_id":"1062957867","osm_type":"way","building":"yes","name":null,"building:levels":null,"religion":null,"denomination":null,"amenity":null,"waterway":null,"isim":null},"geometry":{"type":"MultiPolygon","coordinates":[[[[29.8977266,39.4821814],[29.897909,39.4820509],[29.89774,39.481904],[29.897909,39.4817715],[29.8977373,39.4816245],[29.8974986,39.4818067],[29.8969595,39.4813864],[29.8971982,39.4812291],[29.8970372,39.4810862],[29.8968656,39.4812063],[29.8966403,39.4810241],[29.8964579,39.481167],[29.896828,39.4814609],[29.8967985,39.4814796],[29.8969434,39.4815976],[29.8969675,39.4815789],[29.8972438,39.4818005],[29.8972223,39.4818274],[29.8973618,39.4819433],[29.8973993,39.4819226],[29.8977266,39.4821814]]]]}},
{"type":"Feature","properties":{"full_id":"w1062957868","osm_id":"1062957868","osm_type":"way","building":"yes","name":null,"building:levels":null,"religion":null,"denomination":null,"amenity":null,"waterway":null,"isim":null},"geometry":{"type":"MultiPolygon","coordinates":[[[[29.8970882,39.4810034],[29.897335,39.4812042],[29.8976541,39.4809662],[29.897402,39.4807633],[29.8970882,39.4810034]]]]}},
{"type":"Feature","properties":{"full_id":"w1062957869","osm_id":"1062957869","osm_type":"way","building":"yes","name":null,"building:levels":null,"religion":null,"denomination":null,"amenity":null,"waterway":null,"isim":null},"geometry":{"type":"MultiPolygon","coordinates":[[[[29.8974731,39.4807146],[29.8977199,39.4809154],[29.898039,39.4806774],[29.8977869,39.4804745],[29.8974731,39.4807146]]]]}},
{"type":"Feature","properties":{"full_id":"w1062957870","osm_id":"1062957870","osm_type":"way","building":"yes","name":null,"building:levels":null,"religion":null,"denomination":null,"amenity":null,"waterway":null,"isim":null},"geometry":{"type":"MultiPolygon","coordinates":[[[[29.8977789,39.4815613],[29.8980256,39.4817622],[29.8983448,39.4815241],[29.8980927,39.4813212],[29.8977789,39.4815613]]]]}},
{"type":"Feature","properties":{"full_id":"w1062957871","osm_id":"1062957871","osm_type":"way","building":"yes","name":null,"building:levels":null,"religion":null,"denomination":null,"amenity":null,"waterway":null,"isim":null},"geometry":{"type":"MultiPolygon","coordinates":[[[[29.8981705,39.4812777],[29.8984172,39.4814785],[29.8987364,39.4812405],[29.8984843,39.4810376],[29.8981705,39.4812777]]]]}},
{"type":"Feature","properties":{"full_id":"w1062957872","osm_id":"1062957872","osm_type":"way","building":"yes","name":null,"building:levels":null,"religion":null,"denomination":null,"amenity":null,"waterway":null,"isim":null},"geometry":{"type":"MultiPolygon","coordinates":[[[[29.8990972,39.4811732],[29.8992715,39.4810345],[29.8980243,39.4800118],[29.8978473,39.4801484],[29.8980511,39.4803265],[29.8978902,39.4804569],[29.8980592,39.4805914],[29.8983006,39.4804175],[29.8988129,39.4808316],[29.8985849,39.4810014],[29.8987485,39.4811504],[29.8989201,39.4810262],[29.8990972,39.4811732]]]]}},
{"type":"Feature","properties":{"full_id":"w1063184076","osm_id":"1063184076","osm_type":"way","building":"yes","name":null,"building:levels":"4","religion":null,"denomination":null,"amenity":null,"waterway":null,"isim":null},"geometry":{"type":"MultiPolygon","coordinates":[[[[29.895402,39.4837328],[29.895461,39.4837328],[29.8955308,39.4836748],[29.8955683,39.4836003],[29.8962711,39.4831034],[29.8964427,39.4830496],[29.8965071,39.4829047],[29.8964427,39.482826],[29.8962979,39.4828219],[29.8960471,39.4826148],[29.8958907,39.4824856],[29.8956112,39.4822547],[29.8956112,39.482147],[29.89552,39.4820932],[29.8954074,39.4820932],[29.8953269,39.4821512],[29.8953216,39.4822298],[29.8949367,39.4825041],[29.8945759,39.4827846],[29.8944847,39.4827846],[29.8943881,39.4828426],[29.8943828,39.4829295],[29.8944632,39.4829999],[29.8945705,39.4830041],[29.8946295,39.4830952],[29.895166,39.4835299],[29.895284,39.4835754],[29.8952625,39.4836624],[29.895402,39.4837328]]]]}},
{"type":"Feature","properties":{"full_id":"w1063198375","osm_id":"1063198375","osm_type":"way","building":"yes","name":null,"building:levels":null,"religion":null,"denomination":null,"amenity":null,"waterway":null,"isim":null},"geometry":{"type":"MultiPolygon","coordinates":[[[[29.8963907,39.4844679],[29.8965358,39.4842772],[29.896106,39.4840574],[29.8960147,39.484157],[29.8959556,39.4842855],[29.8963907,39.4844679]]]]}},
{"type":"Feature","properties":{"full_id":"w1063198376","osm_id":"1063198376","osm_type":"way","building":"yes","name":null,"building:levels":null,"religion":null,"denomination":null,"amenity":null,"waterway":null,"isim":null},"geometry":{"type":"MultiPolygon","coordinates":[[[[29.8948544,39.4846876],[29.8951713,39.4842523],[29.8956279,39.4844596],[29.8956602,39.484414],[29.8957569,39.484472],[29.8956816,39.484584],[29.8957139,39.4846254],[29.8955151,39.4849157],[29.8954399,39.4848784],[29.8953755,39.4850027],[29.895268,39.4849654],[29.8952841,39.4848991],[29.8948275,39.4847167],[29.8948544,39.4846876]]]]}},
{"type":"Feature","properties":{"full_id":"w1063198389","osm_id":"1063198389","osm_type":"way","building":"yes","name":null,"building:levels":null,"religion":null,"denomination":null,"amenity":null,"waterway":null,"isim":null},"geometry":{"type":"MultiPolygon","coordinates":[[[[29.8965433,39.4840234],[29.8965701,39.4839468],[29.8965834,39.483927],[29.896605,39.483895],[29.8966613,39.4838412],[29.8966908,39.4838226],[29.896605,39.4837377],[29.8965111,39.483804],[29.8964548,39.4837791],[29.8963663,39.4838888],[29.8964172,39.4839033],[29.8964065,39.4839965],[29.8965433,39.4840234]]]]}},
{"type":"Feature","properties":{"full_id":"w1063261989","osm_id":"1063261989","osm_type":"way","building":"yes","name":null,"building:levels":null,"religion":null,"denomination":null,"amenity":null,"waterway":null,"isim":null},"geometry":{"type":"MultiPolygon","coordinates":[[[[29.897136,39.4794733],[29.8972004,39.4795106],[29.8973184,39.479494],[29.8973613,39.4794112],[29.8972862,39.4793242],[29.8973238,39.4791379],[29.8973935,39.4791255],[29.897431,39.4789392],[29.8975598,39.4788605],[29.8976832,39.4789019],[29.8977529,39.4788895],[29.8978173,39.4788522],[29.8978441,39.4787446],[29.8978012,39.4787032],[29.8979514,39.4785789],[29.8981284,39.4785789],[29.8981821,39.4785086],[29.8985522,39.4785582],[29.898638,39.4785127],[29.8986488,39.4784423],[29.8985683,39.4783802],[29.8984503,39.4783843],[29.8981821,39.4783139],[29.8980962,39.4783885],[29.8979514,39.4782974],[29.8975812,39.4785872],[29.8974901,39.4785748],[29.8974471,39.4786245],[29.8974579,39.4786576],[29.897254,39.4788481],[29.897195,39.4788605],[29.8970716,39.4789516],[29.8971521,39.4790634],[29.8970716,39.4790924],[29.8971467,39.4793201],[29.8971306,39.4794029],[29.897136,39.4794733]]]]}},
{"type":"Feature","properties":{"full_id":"w1063528993","osm_id":"1063528993","osm_type":"way","building":"yes","name":"Ekol cafeteria","building:levels":"2","religion":null,"denomination":null,"amenity":null,"waterway":null,"isim":null},"geometry":{"type":"MultiPolygon","coordinates":[[[[29.8974159,39.4816459],[29.8974749,39.4816004],[29.8975178,39.4816169],[29.8975822,39.4815734],[29.8975608,39.4815445],[29.89766,39.4814699],[29.8974722,39.4813105],[29.8972335,39.4815051],[29.8974159,39.4816459]]]]}},
{"type":"Feature","properties":{"full_id":"w1063952825","osm_id":"1063952825","osm_type":"way","building":"yes","name":"terrase couverte du Ekol cafeteria","building:levels":null,"religion":null,"denomination":null,"amenity":"cafe","waterway":null,"isim":null},"geometry":{"type":"MultiPolygon","coordinates":[[[[29.8976934,39.4813777],[29.8977924,39.4813013],[29.8976384,39.4811739],[29.8975339,39.4812461],[29.8976934,39.4813777]]]]}},
{"type":"Feature","properties":{"full_id":"w1063952831","osm_id":"1063952831","osm_type":"way","building":"yes","name":null,"building:levels":null,"religion":null,"denomination":null,"amenity":"cafe","waterway":null,"isim":null},"geometry":{"type":"MultiPolygon","coordinates":[[[[29.9011502,39.4788731],[29.9009577,39.4787117],[29.9011942,39.4785526],[29.9013812,39.4787096],[29.9011502,39.4788731]]]]}},
{"type":"Feature","properties":{"full_id":"w1063952832","osm_id":"1063952832","osm_type":"way","building":"yes","name":null,"building:levels":null,"religion":null,"denomination":null,"amenity":"cafe","waterway":null,"isim":null},"geometry":{"type":"MultiPolygon","coordinates":[[[[29.9009687,39.4789728],[29.9010649,39.4789049],[29.9008999,39.4787691],[29.9008119,39.4788455],[29.9009687,39.4789728]]]]}},
{"type":"Feature","properties":{"full_id":"w1063979411","osm_id":"1063979411","osm_type":"way","building":"yes","name":null,"building:levels":null,"religion":null,"denomination":null,"amenity":null,"waterway":null,"isim":null},"geometry":{"type":"MultiPolygon","coordinates":[[[[29.9006793,39.47646],[29.9003038,39.476166],[29.9005881,39.4759507],[29.9005667,39.4758803],[29.9006579,39.4757975],[29.900851,39.4757727],[29.9011192,39.4757975],[29.9012587,39.4759176],[29.9012748,39.476075],[29.9012319,39.4762406],[29.9011138,39.476311],[29.9011407,39.4763482],[29.9011138,39.4763855],[29.9019292,39.477019],[29.9019614,39.4769942],[29.9021975,39.4771847],[29.9019024,39.4774083],[29.9016717,39.4772302],[29.9017468,39.4771474],[29.900969,39.4765346],[29.9009368,39.4764973],[29.9008081,39.4763896],[29.9006793,39.47646]]]]}},
{"type":"Feature","properties":{"full_id":"w1063979421","osm_id":"1063979421","osm_type":"way","building":"yes","name":null,"building:levels":null,"religion":null,"denomination":null,"amenity":null,"waterway":null,"isim":null},"geometry":{"type":"MultiPolygon","coordinates":[[[[29.9041662,39.4754911],[29.9037907,39.4751764],[29.9037961,39.4751309],[29.9039033,39.4750563],[29.9039623,39.4750522],[29.9040106,39.4751019],[29.904531,39.4747044],[29.9046544,39.4747499],[29.9046865,39.4747292],[29.9045524,39.4745843],[29.9046705,39.4744807],[29.9047134,39.4745056],[29.9050513,39.4748617],[29.9049226,39.4749487],[29.9047831,39.4748037],[29.9047348,39.4748286],[29.9048046,39.4749238],[29.9042842,39.4753089],[29.9041984,39.4752344],[29.9041662,39.4752592],[29.904311,39.4754],[29.9041662,39.4754911]]]]}},
{"type":"Feature","properties":{"full_id":"w1085818468","osm_id":"1085818468","osm_type":"way","building":"yes","name":null,"building:levels":null,"religion":null,"denomination":null,"amenity":null,"waterway":null,"isim":null},"geometry":{"type":"MultiPolygon","coordinates":[[[[29.8904194,39.4844655],[29.8900091,39.4841182],[29.8898448,39.4842338],[29.8902552,39.4845811],[29.8904194,39.4844655]]]]}},
{"type":"Feature","properties":{"full_id":"w1085818469","osm_id":"1085818469","osm_type":"way","building":"yes","name":null,"building:levels":null,"religion":null,"denomination":null,"amenity":null,"waterway":null,"isim":null},"geometry":{"type":"MultiPolygon","coordinates":[[[[29.8890734,39.4840816],[29.8894559,39.4837158],[29.8892829,39.4836081],[29.8889004,39.4839739],[29.8890734,39.4840816]]]]}},
{"type":"Feature","properties":{"full_id":"w1085818470","osm_id":"1085818470","osm_type":"way","building":"yes","name":null,"building:levels":null,"religion":null,"denomination":null,"amenity":null,"waterway":null,"isim":null},"geometry":{"type":"MultiPolygon","coordinates":[[[[29.8884914,39.4845617],[29.8889126,39.4841229],[29.8887363,39.4840221],[29.8883152,39.484461],[29.8884914,39.4845617]]]]}},
{"type":"Feature","properties":{"full_id":"w1085818471","osm_id":"1085818471","osm_type":"way","building":"yes","name":null,"building:levels":null,"religion":null,"denomination":null,"amenity":null,"waterway":null,"isim":null},"geometry":{"type":"MultiPolygon","coordinates":[[[[29.889457,39.4849121],[29.8899784,39.4845429],[29.88983,39.4844182],[29.8893087,39.4847874],[29.889457,39.4849121]]]]}},
{"type":"Feature","properties":{"full_id":"w1085818472","osm_id":"1085818472","osm_type":"way","building":"yes","name":null,"building:levels":null,"religion":null,"denomination":null,"amenity":null,"waterway":null,"isim":null},"geometry":{"type":"MultiPolygon","coordinates":[[[[29.8894372,39.4853606],[29.8889656,39.4851692],[29.8890711,39.4850144],[29.8895427,39.4852059],[29.8894372,39.4853606]]]]}},
{"type":"Feature","properties":{"full_id":"w1085818473","osm_id":"1085818473","osm_type":"way","building":"yes","name":null,"building:levels":null,"religion":null,"denomination":null,"amenity":null,"waterway":null,"isim":null},"geometry":{"type":"MultiPolygon","coordinates":[[[[29.8885948,39.4848997],[29.8881232,39.4847083],[29.8882287,39.4845535],[29.8887003,39.4847449],[29.8885948,39.4848997]]]]}},
{"type":"Feature","properties":{"full_id":"w1085818474","osm_id":"1085818474","osm_type":"way","building":"yes","name":null,"building:levels":null,"religion":null,"denomination":null,"amenity":null,"waterway":null,"isim":null},"geometry":{"type":"MultiPolygon","coordinates":[[[[29.8907704,39.4798749],[29.8907083,39.4799758],[29.8911666,39.4801438],[29.8910999,39.4802521],[29.8906357,39.4800819],[29.8905777,39.4801762],[29.8911098,39.4803714],[29.8911717,39.4802709],[29.8912053,39.4802832],[29.8912863,39.4801517],[29.8912553,39.4801403],[29.8912993,39.4800688],[29.8907704,39.4798749]]]]}},
{"type":"Feature","properties":{"full_id":"w1085818475","osm_id":"1085818475","osm_type":"way","building":"yes","name":null,"building:levels":null,"religion":null,"denomination":null,"amenity":null,"waterway":null,"isim":null},"geometry":{"type":"MultiPolygon","coordinates":[[[[29.8900004,39.4801363],[29.8899383,39.4802371],[29.8903966,39.4804051],[29.8903299,39.4805135],[29.8898657,39.4803432],[29.8898077,39.4804375],[29.8903398,39.4806327],[29.8904017,39.4805322],[29.8904353,39.4805445],[29.8905163,39.480413],[29.8904853,39.4804017],[29.8905293,39.4803301],[29.8900004,39.4801363]]]]}},
{"type":"Feature","properties":{"full_id":"w1085818476","osm_id":"1085818476","osm_type":"way","building":"yes","name":null,"building:levels":null,"religion":null,"denomination":null,"amenity":null,"waterway":null,"isim":null},"geometry":{"type":"MultiPolygon","coordinates":[[[[29.8892395,39.4799023],[29.889223,39.4797832],[29.8887317,39.4798304],[29.8887066,39.479712],[29.8892137,39.4796478],[29.8891918,39.4795448],[29.8886103,39.4796184],[29.8886337,39.4797282],[29.888597,39.4797328],[29.8886275,39.4798765],[29.8886614,39.4798722],[29.888678,39.4799504],[29.8892395,39.4799023]]]]}},
{"type":"Feature","properties":{"full_id":"w1085818477","osm_id":"1085818477","osm_type":"way","building":"yes","name":null,"building:levels":null,"religion":null,"denomination":null,"amenity":null,"waterway":null,"isim":null},"geometry":{"type":"MultiPolygon","coordinates":[[[[29.8896697,39.480402],[29.8896752,39.4802904],[29.8891682,39.4802756],[29.8891741,39.4801557],[29.8896877,39.4801708],[29.8896928,39.4800665],[29.889104,39.4800492],[29.8890985,39.4801604],[29.8890614,39.4801593],[29.8890542,39.4803048],[29.8890885,39.4803058],[29.8890846,39.4803849],[29.8896697,39.480402]]]]}},
{"type":"Feature","properties":{"full_id":"w1085818480","osm_id":"1085818480","osm_type":"way","building":"yes","name":null,"building:levels":null,"religion":null,"denomination":null,"amenity":null,"waterway":null,"isim":null},"geometry":{"type":"MultiPolygon","coordinates":[[[[29.8855533,39.4881279],[29.8855565,39.4878837],[29.8860107,39.4878872],[29.8860075,39.4881314],[29.8855533,39.4881279]]]]}},
{"type":"Feature","properties":{"full_id":"w1085818481","osm_id":"1085818481","osm_type":"way","building":"yes","name":null,"building:levels":null,"religion":null,"denomination":null,"amenity":null,"waterway":null,"isim":null},"geometry":{"type":"MultiPolygon","coordinates":[[[[29.8855588,39.4877699],[29.8855607,39.4876633],[29.8854336,39.4876619],[29.8854396,39.4873337],[29.8855582,39.487335],[29.8855603,39.4872223],[29.8860236,39.4872274],[29.8860217,39.4873332],[29.8861338,39.4873344],[29.8861279,39.4876578],[29.8860112,39.4876565],[29.886009,39.4877748],[29.8855588,39.4877699]]]]}},
{"type":"Feature","properties":{"full_id":"w1085818482","osm_id":"1085818482","osm_type":"way","building":"yes","name":null,"building:levels":null,"religion":null,"denomination":null,"amenity":null,"waterway":null,"isim":null},"geometry":{"type":"MultiPolygon","coordinates":[[[[29.8937158,39.4761313],[29.8933987,39.4760026],[29.8930952,39.4764482],[29.8926198,39.4762552],[29.8929196,39.475815],[29.8926609,39.47571],[29.8922663,39.4762896],[29.8933177,39.476716],[29.8937158,39.4761313]]]]}},
{"type":"Feature","properties":{"full_id":"w1085818487","osm_id":"1085818487","osm_type":"way","building":"yes","name":null,"building:levels":null,"religion":null,"denomination":null,"amenity":null,"waterway":null,"isim":null},"geometry":{"type":"MultiPolygon","coordinates":[[[[29.8938727,39.4814598],[29.8933857,39.4810638],[29.8930493,39.4813102],[29.8935362,39.4817063],[29.8938727,39.4814598]]]]}},
{"type":"Feature","properties":{"full_id":"w1085818495","osm_id":"1085818495","osm_type":"way","building":"yes","name":null,"building:levels":null,"religion":null,"denomination":null,"amenity":null,"waterway":null,"isim":null},"geometry":{"type":"MultiPolygon","coordinates":[[[[29.9059497,39.4751272],[29.9055561,39.4748051],[29.9053824,39.4749316],[29.9057761,39.4752536],[29.9059497,39.4751272]]]]}},
{"type":"Feature","properties":{"full_id":"w1085818497","osm_id":"1085818497","osm_type":"way","building":"yes","name":null,"building:levels":null,"religion":null,"denomination":null,"amenity":null,"waterway":null,"isim":null},"geometry":{"type":"MultiPolygon","coordinates":[[[[29.8925108,39.4781999],[29.8920473,39.4778466],[29.8919637,39.477912],[29.8921064,39.4780207],[29.891801,39.4782595],[29.8919834,39.4783984],[29.8922835,39.4781638],[29.892422,39.4782693],[29.8925108,39.4781999]]]]}},
{"type":"Feature","properties":{"full_id":"w1085818498","osm_id":"1085818498","osm_type":"way","building":"yes","name":null,"building:levels":null,"religion":null,"denomination":null,"amenity":null,"waterway":null,"isim":null},"geometry":{"type":"MultiPolygon","coordinates":[[[[29.8910898,39.4786187],[29.8915338,39.4789866],[29.8916209,39.478924],[29.8914842,39.4788107],[29.8918022,39.478582],[29.8916275,39.4784373],[29.8913149,39.4786621],[29.8911823,39.4785522],[29.8910898,39.4786187]]]]}},
{"type":"Feature","properties":{"full_id":"w1085818499","osm_id":"1085818499","osm_type":"way","building":"yes","name":null,"building:levels":null,"religion":null,"denomination":null,"amenity":null,"waterway":null,"isim":null},"geometry":{"type":"MultiPolygon","coordinates":[[[[29.8934924,39.4850204],[29.8930779,39.484663],[29.8928756,39.4848027],[29.893117,39.485011],[29.8924426,39.4854766],[29.8922129,39.4852784],[29.8920172,39.4854135],[29.8924272,39.4857674],[29.8928141,39.4855005],[29.8929564,39.4856233],[29.8930462,39.4855613],[29.8932696,39.4857543],[29.8934062,39.4857625],[29.8934896,39.4857063],[29.8934942,39.4855997],[29.8932667,39.4854036],[29.8933525,39.4853443],[29.8932062,39.4852182],[29.8934924,39.4850204]]]]}},
{"type":"Feature","properties":{"full_id":"w1137178735","osm_id":"1137178735","osm_type":"way","building":"yes","name":null,"building:levels":null,"religion":null,"denomination":null,"amenity":null,"waterway":null,"isim":null},"geometry":{"type":"MultiPolygon","coordinates":[[[[29.8897301,39.4797552],[29.8901294,39.4798363],[29.8901644,39.4797246],[29.8902671,39.4797444],[29.8902905,39.4796687],[29.8904049,39.4796849],[29.8904446,39.4795498],[29.889646,39.4793785],[29.8896017,39.4795209],[29.8897301,39.4795516],[29.8897044,39.4796255],[29.8897651,39.4796453],[29.8897301,39.4797552]]]]}},
{"type":"Feature","properties":{"full_id":"w1137178736","osm_id":"1137178736","osm_type":"way","building":"yes","name":null,"building:levels":null,"religion":null,"denomination":null,"amenity":null,"waterway":null,"isim":null},"geometry":{"type":"MultiPolygon","coordinates":[[[[29.8906561,39.4796319],[29.8909534,39.4797344],[29.8909835,39.4796961],[29.8911888,39.4797794],[29.8913587,39.479509],[29.8911534,39.4794011],[29.8908649,39.4793027],[29.8906561,39.4796319]]]]}},
{"type":"Feature","properties":{"full_id":"w1487586366","osm_id":"1487586366","osm_type":"way","building":"yes","name":null,"building:levels":null,"religion":null,"denomination":null,"amenity":null,"waterway":null,"isim":null},"geometry":{"type":"MultiPolygon","coordinates":[[[[29.9028562,39.4779008],[29.9029511,39.4778427],[29.9030557,39.477926],[29.9028399,39.47808],[29.9031081,39.4782769],[29.903288,39.4781431],[29.9033697,39.4780649],[29.9034155,39.4781002],[29.9034973,39.4780497],[29.9035693,39.4780598],[29.9036445,39.4780421],[29.903687,39.4779917],[29.9037034,39.477921],[29.9037001,39.4778881],[29.9037655,39.4778629],[29.9037295,39.4778099],[29.9039356,39.477671],[29.9038199,39.4775607],[29.9036833,39.4774494],[29.9036516,39.4774636],[29.9035475,39.4773935],[29.9034472,39.4774622],[29.9033129,39.4773643],[29.9031444,39.4774753],[29.9030858,39.477433],[29.9028701,39.4775761],[29.9030479,39.4777163],[29.9029987,39.4777587],[29.9028644,39.4776667],[29.9027243,39.4777777],[29.9028562,39.4779008]]]]}},
{"type":"Feature","properties":{"full_id":"w1487586367","osm_id":"1487586367","osm_type":"way","building":"yes","name":null,"building:levels":null,"religion":null,"denomination":null,"amenity":null,"waterway":null,"isim":null},"geometry":{"type":"MultiPolygon","coordinates":[[[[29.903895,39.4768587],[29.9043552,39.4771948],[29.9044875,39.4770948],[29.9044159,39.4770246],[29.9046694,39.4768353],[29.9046253,39.4768055],[29.9046832,39.4767694],[29.9047493,39.4767928],[29.9048953,39.4768055],[29.9050304,39.4767183],[29.9050249,39.4765801],[29.90508,39.4765694],[29.9050662,39.4763908],[29.9049753,39.4763312],[29.9047713,39.4763312],[29.9047686,39.4763716],[29.9045564,39.4763525],[29.9044159,39.4764503],[29.9044296,39.476629],[29.9041789,39.4767907],[29.9040549,39.4767226],[29.903895,39.4768587]]]]}},
{"type":"Feature","properties":{"full_id":"w1487586368","osm_id":"1487586368","osm_type":"way","building":"yes","name":null,"building:levels":null,"religion":null,"denomination":null,"amenity":null,"waterway":null,"isim":null},"geometry":{"type":"MultiPolygon","coordinates":[[[[29.9050765,39.4762365],[29.9052023,39.4763318],[29.9053898,39.476341],[29.9053874,39.476308],[29.9056106,39.4763153],[29.905715,39.4762219],[29.9057174,39.4760625],[29.9059666,39.4758756],[29.9058883,39.4757986],[29.9059334,39.4757638],[29.9061114,39.4758866],[29.9062301,39.4758023],[29.9057791,39.4754633],[29.9056652,39.4755513],[29.9058361,39.4757033],[29.905791,39.4757418],[29.9056937,39.475652],[29.9054491,39.4758389],[29.9054515,39.4758701],[29.9053898,39.4758573],[29.905188,39.4758719],[29.9051026,39.4759434],[29.9050955,39.4760918],[29.9050765,39.4762365]]]]}},
{"type":"Feature","properties":{"full_id":"w1487586369","osm_id":"1487586369","osm_type":"way","building":"yes","name":null,"building:levels":null,"religion":null,"denomination":null,"amenity":null,"waterway":null,"isim":null},"geometry":{"type":"MultiPolygon","coordinates":[[[[29.8945329,39.4767268],[29.8946193,39.4769545],[29.8946854,39.4769505],[29.8950007,39.477241],[29.895077,39.4773038],[29.8954024,39.4773587],[29.895794,39.4772881],[29.8960279,39.4770722],[29.8961194,39.476821],[29.8959872,39.4765973],[29.8958448,39.4764049],[29.8956668,39.4762636],[29.8956973,39.4762165],[29.8952855,39.4761694],[29.8952804,39.4762479],[29.894899,39.4763186],[29.8946956,39.4764992],[29.8945329,39.4767268]]]]}},
{"type":"Feature","properties":{"full_id":"w1487586370","osm_id":"1487586370","osm_type":"way","building":"yes","name":null,"building:levels":null,"religion":null,"denomination":null,"amenity":null,"waterway":null,"isim":null},"geometry":{"type":"MultiPolygon","coordinates":[[[[29.8890068,39.4843247],[29.8894004,39.4846138],[29.8898099,39.48431],[29.8894322,39.4840086],[29.8890068,39.4843247]]]]}},
{"type":"Feature","properties":{"full_id":"w1487586371","osm_id":"1487586371","osm_type":"way","building":"yes","name":null,"building:levels":null,"religion":null,"denomination":null,"amenity":null,"waterway":null,"isim":null},"geometry":{"type":"MultiPolygon","coordinates":[[[[29.8926936,39.4823299],[29.8928174,39.4822468],[29.8926808,39.4821388],[29.8925634,39.4822232],[29.8926936,39.4823299]]]]}},
{"type":"Feature","properties":{"full_id":"w1487586372","osm_id":"1487586372","osm_type":"way","building":"yes","name":null,"building:levels":null,"religion":null,"denomination":null,"amenity":null,"waterway":null,"isim":null},"geometry":{"type":"MultiPolygon","coordinates":[[[[29.892938,39.482248],[29.8930699,39.4823535],[29.8932017,39.4822616],[29.8930618,39.4821512],[29.892938,39.482248]]]]}},
{"type":"Feature","properties":{"full_id":"w1487586373","osm_id":"1487586373","osm_type":"way","building":"yes","name":null,"building:levels":null,"religion":null,"denomination":null,"amenity":null,"waterway":null,"isim":null},"geometry":{"type":"MultiPolygon","coordinates":[[[[29.8932612,39.4822195],[29.8933786,39.4821313],[29.8932403,39.4820209],[29.8931181,39.4821065],[29.8932612,39.4822195]]]]}}
]
}
